id,city,district,local_id,name,addr,TYPE,SUMMARY,TEL,PAYEX,SERVICETIME,TW97X,TW97Y,TOTALCAR,TOTALMOTOR,TOTALBIKE
10056,新北市,板橋區,NPBQ,遠東百貨停車場,板橋區中山路一段152號,2,立體式建築附設停車空間,,小型車計時每小時60元;,0~24時,296882,2767068,453,0,
30034,新北市,中和區,NPZH,南華停車場,中和區中和路281號邊,2,平面式臨時路外停車場,,小型車計時每小時20元;小型車月租每月3500元;,6~24時,301086,2765825,42,0,
30018,新北市,中和區,NPZH,板橋監理站停車場,中和區中山路三段116號,2,平面式多目標附建停車場,,機車計次每次10元;,8~17時,298037,2766531.5,0,200,
10008,新北市,板橋區,NPBQ,府後立體停車場,板橋區府中路32-1、32-2,2,立體式多目標附建停車場,2969-7281,小型車計時每小時20元;,0~24時,296277,2767002.5,150,0,
20023,新北市,三重區,NPSC,集美國小地下停車場,三重區集美街10號,2,立體式多目標附建停車場,,小型車月租每月3900元;小型車月租每月3000元;小型車月租每月1500元;,0~24時,299256.5,2772076.5,24,0,
230007,新北市,八里區,NPBL,十三行博物館第二停車場,八里區博物館路200號,2,平面式臨時路外停車場,,小型車計時每小時20元;小型車計時免費;,0~24時,290903.5,2783084,105,21,
30019,新北市,中和區,NPZH,中和國中停車場,中和區興南路二段3巷17號,2,平面式多目標附建停車場,,小型車月租每月1500元;,16~7時,301340,2764339,17,0,
110010,新北市,汐止區,NPXI,崇德國民小學停車場,汐止區茄苳路158號,2,立體式多目標附建停車場,,小型車月租每月500元;小型車月租每月1000元;,17~7時,317500,2773636.5,28,0,
60040,新北市,新店區,NPXD,崇光女子高中地下停車場,新店區三民路19號B2,2,立體式建築附設停車空間,,小型車月租每月3000元;,0~24時,304461.5,2762748.5,60,0,
80007,新北市,鶯歌區,NPYG,陶博館館後停車場,鶯歌區文化路200號,2,平面式多目標附建停車場,,小型車計次每次60元;,0~24時,285544.5,2760249,50,0,
120005,新北市,瑞芳區,NPRF,水湳洞停車場,瑞芳區水湳洞段4、4-1、27-3、27-9地號(台2線78.5K),2,平面式臨時路外停車場,,;,例假日8~21時,337177,2779563.5,300,0,
20051,新北市,三重區,NPSC,台灣省漁會三重示範魚市場停車場,三重區力行路一段6號,2,平面式多目標附建停車場,,小型車計時每小時30元;,0~24時,299273,2773234.5,110,0,
10028,新北市,板橋區,NPBQ,新北市立大觀國民中學停車場,板橋區僑中一街1號地下室,2,立體式多目標附建停車場,,小型車計時每小時20元;小型車月租每月4000元;,0~24時,295269,2767084,30,0,
110008,新北市,汐止區,NPXI,行政中心公有停車場,汐止區新台五路一段268號B1、B2,2,立體式建築附設停車空間,2641-1111,;,0~24時,316498,2773007.5,189,0,
20044,新北市,三重區,NPSC,成功室內停車場,三重區集美街61-1號,2,立體式建築附設停車空間,,機車免費免費;小型車月租每月3500元;,0~24時,299291.5,2771845.5,49,0,
170010,新北市,林口區,NPLK,麗林國小地下室停車場,林口區公園路46號(編號1至15、24至52供社區民眾租用，編號16至23公務用),2,立體式多目標附建停車場,,機車免費免費;小型車月租每月1500元;,18:30~07:00,287120,2773423.5,44,0,
60014,新北市,新店區,NPXD,柴埕活動中心附設停車場,新店區安民街79號B1、B2,2,立體式多目標附建停車場,2212-0662,機車免費免費;小型車月租每月3000元;,0~24時,302140.5,2762270,38,0,
60015,新北市,新店區,NPXD,新北市立文山國民中學停車場,新店區文中路38號,2,立體式多目標附建停車場,2913-4300,小型車月租每月2000元;,18~7時,304434,2761084,40,0,
30048,新北市,中和區,NPZH,永鐿中和連城停車場,中和區連城路114號旁,2,平面式臨時路外停車場,,小型車計時每小時50元;小型車月租每月5000元;機車月租每月800元;機車計次每次20元;,0~24時,300078,2765850.5,50,84,
90009,新北市,三峽區,NPSA,國立臺北大學三峽校區停車場,新北市三峽區大學路151號,2,平面式多目標附建停車場,2673-1949,大型車計次每次100元;小型車計次每次50元;,23~06時,287673,2759737.5,40,0,
110015,新北市,汐止區,NPXI,樟樹國中停車場,汐止區樟樹二路135號地下室,2,立體式多目標附建停車場,,機車計時每小時20元;,週六、日及國定假日8:00至21:00,314528.5,2773199.5,46,0,
40021,新北市,永和區,NPYH,欣紘停車場,永和區民權路39號B2,2,立體式建築附設停車空間,2945-5131,小型車月租每月3300元;,0~24時,302493.5,2765589,10,0,
40011,新北市,永和區,NPYH,永和區溪州零售市場停車場,永和區勵行街44號地下室,2,立體式多目標附建停車場,2925-6803,小型車月租每月3000元;,0~24時,302133,2767372,5,0,
30029,新北市,中和區,NPZH,新北市光復國小地下停車場,中和區光環路二段1號,2,立體式多目標附建停車場,3234-5645#134,小型車月租每月3000元;,平日19:00至隔日7:00；假日24小時,298773.5,2767500,131,0,
50017,新北市,新莊區,NPXZ,昌隆國小附設停車場,新莊區昌隆街63號,2,立體式建築附設停車空間,2996-2351,小型車月租每月1500元;,19:00至翌日7:00,295916,2771530.5,34,0,
20052,新北市,三重區,NPSC,力行商場停車場,三重區力行路一段52號旁,2,平面式臨時路外停車場,8985-8236,小型車計時每小時30元;小型車月租每月3500元;小型車月租每季9000元;,0~24時,299180.5,2773307,80,0,
20055,新北市,三重區,NPSC,久鑫停車場（一）,三重區進安街與通華街口,2,平面式臨時路外停車場,953789222,小型車月租每月2500元;小型車月租每季7000元;,0~24時,299982.5,2775333.5,13,0,
20056,新北市,三重區,NPSC,久鑫停車場（二）,三重區仁義街與通華街口,2,平面式臨時路外停車場,953789222,小型車月租每月2500元;小型車月租每季7000元;,0~24時,299938,2775301.5,13,0,
60029,新北市,新店區,NPXD,前瞻國際顧問股份有限公司寶中停車場,新店區寶中路65巷口對面,1,平面式臨時路外停車場,8914-5594,小型車計時每小時20元;大型車計時每小時60元;小型車月租每月3000元;大型車月租每月7000元;,0~24時,305269.5,2763704,295,0,
60039,新北市,新店區,NPXD,臺北科學城停車場,新店區北新路三段213號B1、B3與B4,2,立體式多目標附建停車場,2914-7089,小型車計時每小時40元;小型車月租每月4500元;,7:00至23:00,304522.5,2764336.5,366,0,
30040,新北市,中和區,NPZH,中和區中正路加油加氣站附設停車場,中和區中正路808號,2,立體式多目標附建停車場,,小型車月租每月2400元;小型車月租每季6900元;小型車月租每半年13200元;小型車月租每年25200元;,0~24時,298965.5,2766192.5,3,0,
10075,新北市,板橋區,NPBQ,兩家停車場,板橋區綠堤街39號旁,2,平面式臨時路外停車場,932048173,小型車月租每月6000元;,0~24時,295961,2768748.5,20,0,
10072,新北市,板橋區,NPBQ,香丘停車場,板橋區中山路一段279號,2,立體式多目標附建停車場,8953-8420,小型車計時每小時30元;小型車月租每月3300元;,0~24時,297449,2767423,79,0,
60038,新北市,新店區,NPXD,家樂福新店城室內停車場,新店區中興路三段1號B1、B2,2,立體式建築附設停車空間,8919-3333,;,上午8：50至凌晨2：00,305145.5,2763215.5,540,0,
70011,新北市,樹林區,NPSL,臺北縣樹林區文林國民小學停車場,樹林區千歲街59號,2,立體式多目標附建停車場,2681-2625#404,小型車月租每月2000元;,16:30至翌日7:00,292852.5,2765573.5,22,0,
50020,新北市,新莊區,NPXZ,信華大小型停車場,新莊區新樹路647-8號,2,平面式臨時路外停車場,8688-3763,小型車計時每小時20元;大型車計時每小時30元;,0~24時,293843,2766233,31,0,
130022,新北市,土城區,NPTC,承鴻實業停車場,土城區青雲路,2,平面式臨時路外停車場,2261-2838,小型車月租每月2400元;,0~24時,296279.5,2763539,90,0,
150002,新北市,五股區,NPWG,工商展覽中心地下停車場,五股工業區五權路1號,2,立體式多目標附建停車場,2299-6688,小型車計時每小時30元;小型車月租每月4000元;,8:00至22:30,295156,2773045,424,0,
50002,新北市,新莊區,NPXZ,中誠立體停車場,新莊區中誠街53巷1號,1,立體式-塔臺都市計畫停車場,2998-9179、2998-2021,小型車計時每小時20元;小型車月租每月4000元;,0~24時,295568,2771150,200,0,
20039,新北市,三重區,NPSC,聯永三重忠孝一站停車場(三重忠孝路),三重區忠孝路三段84巷63號旁空地,2,平面式臨時路外停車場,(02)27867755,小型車計時每小時20元;小型車月租每月4000元;,0~24時,298593.5,2772964.5,50,0,
10083,新北市,板橋區,NPBQ,國禮停車場,板橋區長江路一段194之3號,2,平面式臨時路外停車場,,小型車計時每小時30元;小型車月租每月3500元;機車月租每月400元;機車計次每次20元;,0~24時,296791.5,2769310.5,68,68,
30001,新北市,中和區,NPZH,新北市中和區民德立體停車場,中和區民德路188號,2,立體式都市計畫停車場,8951-6815,小型車計時每小時20元;小型車月租每月4000元;機車計次每次10元;,0~24時,297240.5,2765765.5,484,75,
60051,新北市,新店區,NPXD,前瞻國際顧問有限公司行遍天下地下室停車場,新店區中興路三段3號B2,2,立體式建築附設停車空間,,小型車計時每小時30元;小型車月租每月5500元;,0~24時,305137.5,2763353,185,0,
140004,新北市,蘆洲區,NPLZ,蘆洲區長安停車場,蘆洲區長安街100號,1,立體式-機械建築附設停車空間,8286-3063,小型車計時每小時20元;小型車月租每月4000元;,0~24時,296563,2774830.5,148,0,
170022,新北市,林口區,NPLK,家樂福林口店停車場,林口區文化二路一段559號地下2樓,2,立體式建築附設停車空間,2602-5858,小型車計時每小時30元;,9時至23時,287621,2774683.5,137,0,
50049,新北市,新莊區,NPXZ,智富停車場,新莊區中原路295號對面，中富路與中智街交叉口,2,平面式臨時路外停車場,2231-6406,小型車計時每小時40元;小型車月租每月4000元;,0~24時,295345,2771907.5,149,0,
60050,新北市,新店區,NPXD,寶橋停車場,新店區寶橋路188號對面,2,平面式臨時路外停車場,8911-7056,小型車計時每小時30元;小型車月租每月3500元;,0~24時,305500,2763467.5,49,0,
60004,新北市,新店區,NPXD,台灣國際開發事業有限公司寶橋停車場,新店區寶橋路10號,1,立體式都市計畫停車場,8911-0258,小型車計時每小時20元;小型車月租每月4000元;,0~24時,305155.5,2763110.5,482,0,
90022,新北市,三峽區,NPSA,宏丞停車場,三峽區大觀路23號旁,2,平面式臨時路外停車場,2674-0242；0936951980,小型車月租每月2500元;,0~24時,287845.568,2759776.433,41,0,
10086,新北市,板橋區,NPBQ,遠東資源開發股份有限公司遠東路1號營業所停車場,板橋區遠東路1號地下一層,2,立體式建築附設停車空間,7741-5000#583,機車計時每小時10元;小型車計時每小時30元;,7:00至23:00,296147,2765704,75,41,
60052,新北市,新店區,NPXD,大豐社福館附設停車場,新店區民族路110號B1,2,立體式建築附設停車空間,2218-5001#101、100(晚),小型車月租每月4000元;,8:00至21:00,304337,2763399,27,0,
140010,新北市,蘆洲區,NPLZ,新北市立鷺江國民中學地下停車場,蘆洲區長興路300號B2、B3,1,立體式建築附設停車空間,8286-1056,小型車計時每小時20元;小型車月租每月4000元;小型車月租每月2000元;小型車月租每月2000元;,0~24時,296558,2775998.5,200,0,
50052,新北市,新莊區,NPXZ,百客達停車場,新莊區中平路377巷,2,平面式臨時路外停車場,8993-7669,小型車月租每月2800元;小型車月租每月2500元;小型車計時每小時20元;,0~24時,294759,2771680.5,100,0,
160003,新北市,泰山區,NPTA,新北市泰山區楓樹腳公園地下停車場,泰山區楓江路26巷20號B2、B3,1,立體式建築附設停車空間,2900-7163,小型車計時每小時20元;小型車月租每月4000元;小型車月租每月2000元;小型車月租每月2000元;,0~24時,293777,2772590.5,382,0,
230012,新北市,八里區,NPBL,文心停車場,八里區大崁里4鄰賢三街83號,2,平面式臨時路外停車場,2610-1897,小型車計次每次100元;,10~22時,293130.5,2783696,28,0,
50052,新北市,新莊區,NPXZ,百客達停車場,新莊區中平路377巷17弄,2,平面式臨時路外停車場,8993-7669,小型車月租每月2500元;,0~24時,294759,2771680.5,17,0,
230016,新北市,八里區,NPBL,觀海停車場,八里區觀海大道,2,平面式臨時路外停車場,2619-3652,小型車計次每次100元;,8~22時,292970,2783766,26,0,
10087,新北市,板橋區,NPBQ,大觀停車場,板橋區大觀路一段38巷,2,平面式臨時路外停車場,8965-2048,小型車計時每小時30元;小型車月租每月4000元;機車月租每月500元;機車計次每次20元;,0~24時,295010.5,2766342.5,123,50,
230001,新北市,八里區,NPBL,八里區第一立體停車場,八里區舊城路12號,1,立體式都市計畫停車場,"2619-5268,86302707",小型車計時每小時20元;小型車月租每月4000元;,0~24時,290345,2782098,220,0,
60055,新北市,新店區,NPXD,綠灣會館停車場,新店區安祥路75號B1,2,立體式建築附設停車空間,2200-8299；2200-8088,小型車計時每小時20元;,8時至22時,298915.5,2761700.5,65,0,
130034,新北市,土城區,NPTC,延和停車場1場,土城區延和路250巷,2,平面式臨時路外停車場,2261-4770,小型車月租每月2500元;,0~24時,297363.5,2764705.5,14,0,
130035,新北市,土城區,NPTC,延和停車場2場,土城區延和路250巷,2,平面式臨時路外停車場,2261-4770,小型車月租每月2500元;,0~24時,297321.5,2764668,14,0,
60058,新北市,新店區,NPXD,新和活動中心附設停車場,新店區新和街109號B1,2,立體式建築附設停車空間,2943-7602,小型車月租每月3000元;小型車月租每月2000元;,0~24時,302155.5,2764302,12,0,
60057,新北市,新店區,NPXD,稚達停車場(二),新店區安光路15巷1號旁,2,平面式臨時路外停車場,939787189,;,0~24時,301599.5,2761816.5,29,0,
10089,新北市,板橋區,NPBQ,麗寶鵬程購物中心停車場,板橋區縣民大道二段3號B2、B3、B4、B5及B6,1,立體式建築附設停車空間,8969-7489,小型車計時每小時50元;小型車月租每月8000元;機車月租每月800元;機車計次每次40元;,0~24時,296568.5,2767238.5,368,375,
10090,新北市,板橋區,NPBQ,新北市大遠百停車場,板橋區新站路28號B2、B3、B4,2,立體式建築附設停車空間,7705-4168,小型車計時每小時60元;機車計次每次30元;,8:00~3:00,297097.5,2767342.5,610,1582,
180001,新北市,深坑區,NPSK,深坑公有立體停車場,深坑區北深路2段192號,1,立體式-塔臺多目標附建停車場,2662-4110(停車場)、2561-4400(廠商),小型車計時每小時30元;小型車月租每月6000元;,0~24時,311922,2766152,280,0,
10091,新北市,板橋區,NPBQ,金板神大樓地下停車場,板橋區南雅東路20-6號B2,2,立體式建築附設停車空間,0932241641；0988018105,小型車計時每小時30元;小型車月租每月2600元;,15時~24時,295886,2766560.5,20,0,
280008,新北市,萬里區,NPWA,萬里區商業文教綜合大樓地下停車場,萬里區瑪鍊路221號,2,立體式建築附設停車空間,2492-2064#312,小型車月租每月1000元;,0~24時,319522.5,2785872,18,0,
90007,新北市,三峽區,NPSA,中園國民小學B1停車場,三峽區大同路222巷22弄2號,2,立體式建築附設停車空間,8671-2590#235,小型車計次每次120元;小型車月租每月8000元;,0~24時,287083,2757848,28,0,
50057,新北市,新莊區,NPXZ,新莊中原二停車場,新莊區中原路255號對面,2,平面式臨時路外停車場,2231-6406,小型車計時每小時40元;小型車月租每月4000元;,0~24時,295281,2771881,41,0,
280007,新北市,萬里區,NPWA,萬里行政大樓B1停車場,萬里區瑪鍊路123號B1,2,立體式建築附設停車空間,2492-2064,小型車計時每小時20元;小型車月租每月1000元;,0~24時,319467,2785713.5,35,0,
10092,新北市,板橋區,NPBQ,高爾富停車場,板橋區遠東路1號後方空地,2,平面式臨時路外停車場,7738-9988,小型車計時每小時20元;,0~24時,295829.5,2765664,98,0,
40006,新北市,永和區,NPYH,秀朗樂活停車場,永和區民權路1號B1-B3,1,立體式多目標附建停車場,2941-4087,小型車計時每小時20元;小型車月租每月4000元;,0~24時,302646,2765772.5,760,0,
130027,新北市,土城區,NPTC,嵿埔之星科技廣場停車場,土城區中央路四段51號,2,立體式建築附設停車空間,2268-2243,小型車計時每小時20元;小型車月租每月2500元;,0~24時,292370,2761369.5,196,0,
10095,新北市,板橋區,NPBQ,永錡停車場,板橋區板林路及保安街一段交叉路口,2,平面式臨時路外停車場,2675-1811,"小型車計時每小時40元;小型車月租每月4,000元;",0~24時,293198.5,2765020.5,68,0,
60062,新北市,新店區,NPXD,安德停車場,新店區安德街139號旁,2,平面式臨時路外停車場,938919191,小型車月租每月1500元;,0~24時,301375,2761443.5,68,0,
60063,新北市,新店區,NPXD,新店區中國城停車場,新店區玫瑰段富貴街9巷,2,平面式臨時路外停車場,2945-5131,小型車月租每月2000元;,0~24時,300136,2760015,32,0,
130049,新北市,土城區,NPTC,Times裕民路停車場,土城區中央路一段72號對面,2,平面式臨時路外停車場,800888924,小型車計時每小時40元;小型車月租每月4500元;,0~24時,295190.6863,2764627.208,48,0,
30068,新北市,中和區,NPZH,便利停車場威力站,中和區中山路二段291、293、295、297號B5、5F至RF,2,立體式建築附設停車空間,2100-5200,小型車計時每小時40元;小型車月租每月3500元;,0~24時,300139,2765988,645,0,
30051,新北市,中和區,NPZH,齊揚停車場,中和區興南路二段131-2號,2,平面式建築附設停車空間,2948-4415,小型車計時每小時20元;小型車月租每月4000元;,0~24時,301002.5,2764097.5,34,0,
20086,新北市,三重區,NPSC,中興一停車場,三重區重新路四段244巷與214巷5弄交叉口,2,平面式臨時路外停車場,8522-0268,小型車月租每月3000元;,0~24時,299173.8,2771805,33,0,
20085,新北市,三重區,NPSC,中興二停車場,三重區重新路四段244巷與214巷5弄交叉口,2,平面式臨時路外停車場,8522-0268,小型車月租每月3000元;,0~24時,299124.5,2771798,17,0,
40026,新北市,永和區,NPYH,?和停車場,永和區中和路305巷口西側旁空地,2,平面式臨時路外停車場,937427601,機車計時每小時10元;小型車計時每小時40元;機車月租每月1000元;小型車月租每月3000元;,0~24時,301141.5,2765880.5,56,62,
30044,新北市,中和區,NPZH,齊一停車場,中和區員富里中山路三段114巷7號B1,2,立體式建築附設停車空間,2221-6020,小型車計時半小時25元;小型車計時每小時50元;小型車月租每月4000元;,0~24時,298001.5,2766739.5,131,0,
40035,新北市,永和區,NPYH,北城B2F、B5F停車場,永和區民權路53號B2及B5,2,立體式建築附設停車空間,2945-5131,小型車月租每月3500元;,0~24時,302474.5,2765526,145,0,
10002,新北市,板橋區,NPBQ,廣福公園平面停車場,板橋區廣權路與五權街口對面,2,平面式多目標附建停車場,933365044,小型車計時每小時30元;小型車月租每月6000元;,0~24時,296809,2764971.5,108,0,
60065,新北市,新店區,NPXD,安德停車場,新店區安德街60巷旁,2,平面式臨時路外停車場,937820492,小型車計時每小時20元;小型車月租每月2000元;,0~24時,301550.3,2761697,88,0,
60011,新北市,新店區,NPXD,新店區安和公園臨時平面停車場,新店區安和路二段141號旁,1,平面式都市計畫停車場,"2231-6406,2212-5734",小型車計時每小時20元;小型車月租每月4000元;,0~24時,302368,2762980.5,67,0,
140003,新北市,蘆洲區,NPLZ,蘆洲中山機械停車場,蘆洲區得勝街107號,1,立體式-塔臺都市計畫停車場,8285-3653,小型車月租每月4000元;小型車計時每小時20元;,0~24時,297711,2775104,268,0,
10003,新北市,板橋區,NPBQ,國光公園平面停車場,板橋區中正路375巷48號,2,平面式多目標附建停車場,"0933-365-044,0989679518",小型車計時每小時30元;小型車月租每月6000元;,0~24時,295752,2768162.5,55,0,
50069,新北市,新莊區,NPXZ,Times寶雅新莊停車場,龍安路252號、252-1號、252-2號、252-3號、252-5號,2,平面式建築附設停車空間,8952-6663,小型車計時每小時50元;小型車計次每次400元;,0~24時,292507.1,2768018,23,0,
30092,新北市,中和區,NPZH,永年停車場,中和區華順街52號右側,2,平面式臨時路外停車場,8952-6663,小型車月租每月2000元;,0~24時,297046.7,2765726,120,0,
60066,新北市,新店區,NPXD,京站停車場,新店區張南里新店路260號B2,2,立體式建築附設停車空間,2182-8888#9951,小型車計時每小時30元;小型車月租每月4800元;,10:00~24:00,304298.7,2761192,50,0,
110013,新北市,汐止區,NPXI,金龍公有停車場,汐止區中興路250號B1,2,立體式多目標附建停車場,2695-4118,小型車計時每小時20元;小型車月租每月4000元;,0~24時,313522.5,2773497.5,43,0,
270004,新北市,金山區,NPJS,金美停車場,金山區忠孝一路70號(對面),2,平面式臨時路外停車場,2498-4018,小型車月租每月2500元;小型車計次平日50元/次;小型車計次每次80元;,6~19時,314177.7,2790365,70,0,
100025,新北市,淡水區,NPTS,Times淡水原德路停車場,淡水區原德路8號旁,2,平面式臨時路外停車場,800888924,小型車計時每小時100元;小型車月租每月5000元;,0~24時,294574.4,2784858,8,0,
30031,新北市,中和區,NPZH,中和復興大樓地下停車場,中和區南山路236號B1-B2樓,1,立體式-機械多目標附建停車場,8941-8449,小型車計時每小時20元;小型車月租每月4000元;,0~24時,301147.5,2764715.5,70,0,
30003,新北市,中和區,NPZH,中和秀山公園地下停車場,中和區自立路15巷12號B1及B2,1,立體式多目標附建停車場,29479212,小型車計時每小時20元;小型車月租每月4000元;,0~24時,302845.5,2765386,404,95,
100002,新北市,淡水區,NPTS,新北市淡水區水碓立體停車場,淡水區中山北路一段189號,1,立體式都市計畫停車場,2629-9412,小型車計時每小時20元;小型車月租每月4000元;,0~24時,294726.5,2785624.5,446,0,
160002,新北市,泰山區,NPTA,泰山區義學立體停車場,泰山區明志路二段188號,1,立體式都市計畫停車場,8531-6494,小型車計時每小時20元;小型車月租每月2000元;機車免費免費;,0~24時,293099.5,2771290,566,42,
220002,新北市,石門區,NPSM,生活家富基漁港臨時停車場,石門區富基里楓林15-16號旁,2,平面式多目標附建停車場,26381367,小型車計次每次60元;,0~24時,303866.5,2798141,165,0,
40020,新北市,永和區,NPYH,寶座停車場,新北市永和區仁愛路306巷75號,2,平面式臨時路外停車場,2928-2104,小型車月租每月3000元;,0~24時,300845,2766847,64,0,
50004,新北市,新莊區,NPXZ,新北市新莊區四維立體停車場,新莊區四維路95號,1,立體式-機械都市計畫停車場,8201-0871、2201-1139,小型車計時每小時20元;小型車月租每月4000元;,0~24時,292749,2768495,240,0,
10039,新北市,板橋區,NPBQ,臺北紙廠停車場,板橋區大觀路二段28號,1,平面式臨時路外停車場,2275-1494,小型車計時每小時20元;小型車月租每月4000元;機車計次每次10元;機車月租每月120元;,0~24時,295054,2766183.5,210,153,
140007,新北市,蘆洲區,NPLZ,蘆洲區成功地下停車場,蘆洲區長安街222號地下1、2樓,1,立體式多目標附建停車場,2848-3105,小型車計時每小時20元;小型車月租每月4000元;,0~24時,296211,2775281.5,147,0,
110014,新北市,汐止區,NPXI,忠厚市場地下停車場,汐止區樟樹一路137巷26號B1,2,立體式多目標附建停車場,2643-7872,小型車計時每小時20元;小型車月租每月4000元;,0~24時,314658.5,2773238.5,73,0,
20038,新北市,三重區,NPSC,正義國小地下停車場,三重區信義西街31號B1、B2及B3,1,立體式多目標附建停車場,2984-7945,機車免費免費;小型車計時每小時20元;小型車月租每月4000元;,0~24時,300052,2773073,298,30,
70017,新北市,樹林區,NPSL,三多國民中學停車場,樹林區三多路101號,2,立體式建築附設停車空間,8688-1501,小型車月租每月2500元;,0~24時,291857,2766463,42,0,
40036,新北市,永和區,NPYH,新店溪福和橋區停車場,永和區福和橋下福和運動公園旁高灘地,2,平面式臨時路外停車場,02-8921-2104,小型車計時每小時20元;機車免費免費;,0~24時,303329.3,2766464,277,363,
10034,新北市,板橋區,NPBQ,新店溪華江堤外區停車場,板橋區華江橋下至光復水門內高灘地,2,平面式臨時路外停車場,2788-8750,小型車計時每小時20元;大型車計時每小時40元;小型車月租每月4000元;大型車月租每月8000元;機車免費免費;,0~24時,298625,2769710.5,546,334,
60068,新北市,新店區,NPXD,新店溪萊茵區停車場,新店區中安大橋下萊茵區高灘地,2,平面式臨時路外停車場,2788-7705,小型車計時每小時20元;小型車月租每月4000元;,0~24時,302744.8,2763805,163,0,
40037,新北市,永和區,NPYH,新店溪綠光河岸區停車場,永和區中正橋下綠光河岸區高灘地,2,平面式臨時路外停車場,2788-8750,小型車計時每小時20元;小型車月租每月4000元;,0~24時,302098,2767965,257,0,
60047,新北市,新店區,NPXD,新店溪親情河濱公園區停車場,新店區親情河濱公園區高灘地,2,平面式臨時路外停車場,2788-7705,小型車計時每小時20元;小型車月租每月4000元;,0~24時,304112.5,2762073.5,152,0,
70028,新北市,樹林區,NPSL,樹林大安收費停車場,樹林區大安路118號,2,立體式建築附設停車空間,2542-0001,小型車計時每小時30元;小型車月租每月3000元;,0~24時,292501.3,2765461,412,0,
30094,新北市,中和區,NPZH,Times 土城青雲路停車場,中和區立德街73號地下一、二樓,2,立體式建築附設停車空間,2228-8613,小型車計時每小時50元;小型車月租每月6000 元;,0~24時,299147.8,2766742,171,0,
50026,新北市,新莊區,NPXZ,明日之星收費停車場,新莊區中正路514巷99號,2,立體式-機械建築附設停車空間,2908-9999,小型車計時每小時30元;小型車月租每月3500元;,0~24時,293480,2769661,76,0,
100026,新北市,淡水區,NPTS,家樂福淡新店停車場,新北市淡水區崁頂里2鄰中山北路二段383號,2,立體式建築附設停車空間,2631-8880,小型車計時每小時30元;機車計時每次10元;,0~24時,294688,2786514,292,299,
30093,新北市,中和區,NPZH,Times中和黃帽汽車百貨停車場,新北市中和區建康路120號2樓,2,立體式建築附設停車空間,2504-6098,;,0~24時,299317.2,2765885,21,0,
30096,新北市,中和區,NPZH,安平停車場,新北市中和區安平路109號地下1樓,2,立體式建築附設停車空間,2986-9257,小型車計時每小時30元;小型車月租每月5000元;,0~24時,301634.7,2765624,27,0,
60069,新北市,新店區,NPXD,永昌停車場,新店區寶高路120巷3弄口,2,平面式臨時路外停車場,02-86615716,小型車月租每月4000元;,0~24時,306001.7,2763209,31,0,
50079,新北市,新莊區,NPXZ,成功停車場,新莊區成功街202號旁,2,平面式臨時路外停車場,980475645,小型車月租每月1500元;,0~24時,292543.3,2767870,41,0,
110045,新北市,汐止區,NPXI,雍和台北園區收費停車場,新北市汐止區南陽街185~213號B1,2,立體式建築附設停車空間,2692-7006,小型車計時每小時20元;小型車月租每月3000元;,8~24時,313131.4,2772395,184,0,
50058,新北市,新莊區,NPXZ,新莊中原三停車場,新莊區中原路247號對面,2,平面式臨時路外停車場,2231-6406,小型車計時每小時30元;小型車月租每月4000元;,0~24時,295208.5,2771891.5,29,0,
60071,新北市,新店區,NPXD,新北市立圖書館捷運新店線大坪林站(捷六)新天地大樓B2停車場,新北市新店區北新路3段105巷2號B2,2,立體式建築附設停車空間,2918-3181#10,小型車月租每月4000元;,0~24時,304616.5,2763924,15,0,
100021,新北市,淡水區,NPTS,中山停車場,淡水區中山路148號之1,2,平面式臨時路外停車場,2736-1313,小型車計時每小時40元;小型車計時每小時80元;機車計次每次30元;,0~24時,294483.5,2784853,28,34,
20095,新北市,三重區,NPSC,Times三重三信路停車場,三重區三信路126號左旁,2,平面式臨時路外停車場,800888924,小型車計時每小時80元;小型車月租每月5000元;,0~24時,299392.5,2775590,22,0,
10041,新北市,板橋區,NPBQ,新北市立中山國民中學附設停車場,板橋區文化路一段188巷56號,2,立體式多目標附建停車場,2250-8250#238,小型車月租每月1000元;小型車月租每月3000元;機車免費免費;,19~6時,297189,2767890,101,86,
60072,新北市,新店區,NPXD,公有碧潭零售市場附設停車場,新北市新店區新店路159號B1,2,立體式-機械建築附設停車空間,2914-3391,小型車計時每小時40元;小型車月租每月3000元;,0~24時,304223.8,2760934,15,0,
20097,新北市,三重區,NPSC,林辰豫,三重區三信路126號左旁,2,平面式臨時路外停車場,800888924,小型車計時每小時80元;小型車月租每月5000元;,0~24時,299502.5,2775725,70,0,
20096,新北市,三重區,NPSC,五華國小停車場,三重區集賢路89號,2,,939054138,小型車計時每小時20元;小型車月租每月4000元;,0~24時,299772.9,2775491,96,0,
50082,新北市,新莊區,NPXZ,新莊區中正停車場,新莊區中正路621號,1,平面式臨時路外停車場,2505-4325,小型車計時每小時60元;小型車月租每月6000元;,0~24時,293528.1,2769324,168,0,
60073,新北市,新店區,NPXD,統帥工業區停車場,新店區寶興段45巷C區地下室,2,立體式建築附設停車空間,2911-1820,小型車計時每小時40元;小型車月租每月3000元;,0~24時,305489.7,2763062,54,0,
40039,新北市,永和區,NPYH,香檳停車場,新北市永和區民權路49巷5弄27號B1,2,立體式建築附設停車空間,2945-5131,小型車月租每月4000元;,8~22時,302628.7,2765667,19,0,
30099,新北市,中和區,NPZH,板信雙子星大樓停車場,中和區立德街119號B2,2,立體式建築附設停車空間,(02)32346463,小型車計時每小時50元;小型車月租每月6000元;,0~24時,299165.4,2766774,63,0,
20025,新北市,三重區,NPSC,新北市果菜運銷股份有限公司停車場,三重區中正北路111號,2,立體式多目標附建停車場,2988-3830,;,0~14時,299132.5,2773015.5,73,0,
170028,新北市,林口區,NPLK,吉祥大樓停車場,新北市林口區中山路97巷14號旁空地,2,平面式臨時路外停車場,917750233,小型車計時每小時20元;小型車計次每次50元;小型車月租每月2000元;,0~24時,289228.8,2774511,24,0,
40014,新北市,永和區,NPYH,中正2區停車場,永和區環河西路旁中正路至綠寶石河濱公園內高灘地,2,平面式臨時路外停車場,2788-8750,小型車計時每小時20元;小型車月租每月4000元;,0~24時,301928.5,2768064,764,325,
150021,新北市,五股區,NPWG,長嶸停車場,新北市新城六路及芳洲七路口,2,平面式臨時路外停車場,82950555,大型車月租每月3000元;大型車月租每半年18000元;大型車月租每年36000元;小型車月租每月1500元;小型車月租每半年9000元;小型車月租每年18000元;,6~22時,295036,2775580,13,0,
30070,新北市,中和區,NPZH,環球購物中心停車場,中和區中山路三段122號B1、B2、B3、5F、6F及RF,2,立體式建築附設停車空間,7731-7999#5100,小型車計時每小時100元;機車計時每小時30元;,0~24時,298012,2766529.5,1139,1171,
30100,新北市,中和區,NPZH,名城停車場,中和區景安路1號B1、B2,2,立體式建築附設停車空間,2945-5131,小型車月租每月3500元;,0~24時,301302.7,2765806,29,0,
40033,新北市,永和區,NPYH,新店溪綠寶石二區停車場,新北市永和區中正橋下綠寶石區高灘地,2,平面式臨時路外停車場,2788-8750,小型車計時每小時20元;小型車月租每月4000元;,0~24時,301446,2767937,198,0,
40040,新北市,永和區,NPYH,鼎晟停車場(中正場),新北市永和區中正路179號B1,2,立體式建築附設停車空間,2370-1115,,0~24時,302168.8,2765743,6,0,
160012,新北市,泰山區,NPTA,新北市泰山區明志國民小學綜合大樓地下停車場,新北市泰山區新生路2號B2,2,立體式多目標附建停車場,29061133轉9,小型車月租每月500元;小型車月租每月1000元;機車免費免費;,0~24時,293075.8,2770798,24,32,
120010,新北市,瑞芳區,NPRF,瑞芳國民小學停車場,瑞芳區中山路2號,2,立體式多目標附建停車場,24972058,小型車計時每小時20元;小型車月租每月2000元;,計時：周六13時至19時，周日9時至19時；月租：每日19時至翌日7時,331142.5,2777985,13,0,
10093,新北市,板橋區,NPBQ,東方富域停車場,板橋區縣民大道二段78號B7及B8,2,立體式建築附設停車空間,2964-5249,小型車計時每小時80元;小型車月租每月6000元;,0~24時,297019.5,2767491.5,184,0,
140025,新北市,蘆洲區,NPLZ,Times蘆洲長樂路停車場,新北市蘆洲區長樂路77號旁,2,平面式臨時路外停車場,800888924,"小型車計時每小時100元;小型車月租每月10,000元;",0~24時,296652.8,2775472,24,0,
50037,新北市,新莊區,NPXZ,五工路加油站停車場,新莊區五工路99-3號,2,平面式臨時路外停車場,2304-3180,小型車月租每月4000元;機車計次每次30元;機車月租每月500元;,0~22時,296038,2772994.5,40,40,
100033,新北市,淡水區,NPTS,名統百貨停車場,新北市淡水區中山路8號B2~B4,2,立體式建築附設停車空間,2629-2888,小型車計時每小時60元;小型車計時每小時100元;,11~22時,294832.1,2784603,113,0,
10115,新北市,板橋區,NPBQ,永琦停車場,新北市板橋區北門街與文昌街口,2,平面式都市計畫停車場,89698923,小型車計時每小時20元;小型車月租每月4000元;,0~24時,296076.2,2767093,47,0,
50089,新北市,新莊區,NPXZ,興偉承停車場,新北市新莊區中山路3段500巷29號,2,立體式建築附設停車空間,2901-5858,小型車計時每小時30元;小型車月租每月3300元;,0~24時,291565.9,2769161,42,0,
140011,新北市,蘆洲區,NPLZ,新北市蘆洲區鷺江國民小學地下室一、二樓停車場,新北市蘆洲區民族路7號,2,立體式多目標附建停車場,2281-9980,小型車月租每月1000元;小型車月租每月1500元;小型車月租每月3000元;小型車學校教職工優惠月票每月1000元;小型車學校教職工優惠月票每月750元 ;,0~24時,298000,2775203.5,99,0,
10117,新北市,板橋區,NPBQ,Times板橋吳鳳路停車場,新北市板橋區吳鳳路92號旁空地,2,平面式臨時路外停車場,800888924,小型車計時每小時80元;,0~24時,297136.4,2769359,11,0,
60054,新北市,新店區,NPXD,民權停車場,新北市新店區民權路82、86號B1、B2,2,立體式建築附設停車空間,8219-3227,小型車計時每小時50元;,0~24時,304215.5,2764077.5,66,0,
30085,新北市,中和區,NPZH,宏達經營管理顧問有限公司中和停車場,新北市中和區中山路三段37巷1號B1,2,立體式建築附設停車空間,2986-9257,小型車計時每小時50元;小型車月租每月5000元;,0~24時,298061.5,2766471,121,0,
40030,新北市,永和區,NPYH,永安停車場,新北市永和區成功路一段78號B3,2,立體式建築附設停車空間,0800-021111,,0~24時,303172,2766252,72,0,
50090,新北市,新莊區,NPXZ,思源停車場,新北市新莊區思源路593巷5弄2號對面空地,2,平面式臨時路外停車場,921685885,小型車計時每小時30元;小型車月租每月2500元;,0~24時,297121.9,2772210,41,0,
50091,新北市,新莊區,NPXZ,Times新莊復興思源停車場,新北市新莊區復興路3段19號後方,2,平面式臨時路外停車場,800888924,小型車月租每月5000元;,0~24時,296461.3,2770807,14,0,
20057,新北市,三重區,NPSC,新長越平安街停車場,新北市三重區平安街15號旁空地,2,平面式臨時路外停車場,27785756,小型車計時每小時40元;,0~24時,300273.5,2772989,7,0,
60020,新北市,新店區,NPXD,碧潭西岸停車場,新北市新店區溪州路31號旁空地,1,平面式臨時路外停車場,2212-8973,小型車計時每小時20元;小型車月租每月4000元;,0~24時,303839.5,2761581,86,0,
60008,新北市,新店區,NPXD,碧潭渡船頭停車場,新北市新店區新店路67號旁空地,1,平面式臨時路外停車場,2917-8135,小型車月租每月4000元;小型車計時每小時20元;,0~24時,304207.5,2761536.5,79,0,
60006,新北市,新店區,NPXD,碧潭東岸停車場,新北市新店區環河路29巷5號1樓旁空地,1,平面式臨時路外停車場,2913-6709,小型車月租每月4000元;小型車計時每小時20元;,0~24時,304171.5,2760975,86,0,
10122,新北市,板橋區,NPBQ,便利停車場新巨蛋站,新北市板橋區文化路一段360號B2,2,立體式建築附設停車空間,2799-1001,小型車計時每小時50元;小型車月租每月3500元;機車計次每次40元;機車月租每月300元;,0~24時,297305.7,2768480,54,100,
100004,新北市,淡水區,NPTS,淡水紅毛城停車場,新北市淡水區中正路30巷1號,1,平面式都市計畫停車場,2542-0001,小型車計時每小時30元;小型車計時每小時40元;小型車月租每月1500元;機車計次每次20元;,0~24時,293530,2785258.5,79,37,
100003,新北市,淡水區,NPTS,淡水漁人碼頭停車場,新北市淡水第二漁港(觀海路與中正路1段附近),2,平面式臨時路外停車場,2805-7486,大型車計次每次180元;小型車計次每次60元;機車免費免費;,0~24時,291701,2786150.5,404,466,
140027,新北市,三重區,NPSC,家福蘆洲停車場,新北市三重區五華街282號,2,立體式建築附設停車空間,8287-9000,小型車計時每小時30元;,0~24時,299100.4,2775602,150,0,
130053,新北市,土城區,NPTC,日新街停車場,新北市土城區日新街36號旁空地,2,平面式臨時路外停車場,03-3323986,小型車計時每小時50元;小型車月租每月4000元;,0~24時,294851.7,2764506,24,0,
140028,新北市,蘆洲區,NPLZ,新北市蘆洲區國民運動中心停車場,新北市蘆洲區長樂路235-1號B1,2,立體式建築附設停車空間,2281-0338,小型車計時每小時20元;小型車月租每月4000元;機車免費免費;,0~24時,296591.7,2775931,42,62,
20104,新北市,三重區,NPSC,三重國民運動中心地下停車場,新北市三重區集美街55號B1、B2,2,立體式建築附設停車空間,22995557,小型車計時每小時20元;小型車月租每月4000元;機車免費免費;,0~24時,299241.3,2771941,57,86,
50067,新北市,新莊區,NPXZ,百邑停車場,新莊區新樹路20號,2,平面式臨時路外停車場,2906-2349,大型車計時每小時50元;小型車計時每小時30元;機車計次每次10元;大型車月租每月4000元;小型車月租每月2000元;,0~24時,294270.569,2769177.116,289,15,
130054,新北市,土城區,NPTC,Times土城永寧停車場,新北市土城區永和街11號,2,平面式臨時路外停車場,800888924,小型車月租每月8000元;機車計次每次50元;小型車計時每小時80元;,0~24時,293953.4,2761894,230,266,
150004,新北市,五股區,NPWG,五股區四維停車場,新北市五股區四維路142巷2號對面,2,平面式臨時路外停車場,29876418,小型車月租每月4000元;小型車月租每月2000元;小型車計時每小時30元;,0~24時,297736.5,2774057,78,0,
40043,新北市,永和區,NPYH,大家停車二場,新北市永和區民樂街31巷前堤外,2,平面式臨時路外停車場,935969933,小型車計時每小時20元;小型車月租每月2000元;小型車月租每月2500元;,0~24時,303419.3,2766407,480,0,
100034,新北市,淡水區,NPTS,淡水運動中心地下停車場,新北市淡水區中山北路2段381巷2號B2,2,立體式建築附設停車空間,0800-021111,小型車計時每小時20元;小型車月租每月4000元;,0~24時,294597.9,2786512,63,0,
10079,新北市,板橋區,NPBQ,板信停車場,新北市板橋區信義路與青雲路口,2,平面式臨時路外停車場,0800-021111,小型車計時每小時30元;機車月租每月300元;小型車月租每月4000元;,0~24時,296505.5,2764770.5,95,95,
30103,新北市,中和區,NPZH,聖日停車場,新北市中和區立研街1至35號旁空地,2,平面式臨時路外停車場,23320168,小型車計時每小時40元;小型車計時每小時20元;小型車計時每小時10元;小型車月租每月3500元;,0~24時,298929.5,2766608,48,0,
30089,新北市,中和區,NPZH,新北市中和國民運動中心收費停車場,新北市中和區錦和路350之2號1樓、B1,1,平面式建築附設停車空間,22429222,小型車計時每小時20元;小型車月租每月4000元;,0~24時,299328,2765100,84,0,
130055,新北市,土城區,NPTC,新北市土城國民運動中心停車場,新北市土城區金城路247-1號B1,2,立體式建築附設停車空間,2261-5999,機車免費免費;小型車計時每小時10元;,0~24時,295980.4,2764225,50,60,
60056,新北市,新店區,NPXD,Times新店北新路停車場,新北市新店區北新路1段62號旁,2,平面式臨時路外停車場,800888924,小型車計時每小時80元;小型車月租每月8000元;,0~24時,304767,2762518,18,0,
180003,新北市,深坑區,NPSK,深坑停車場,新北市深坑區平埔街7號對面空地,2,平面式臨時路外停車場,925975999,小型車計時每小時40元;小型車月租每月3000元;小型車計次每次100元;,0~24時,312104.5,2766035,41,0,
180005,新北市,深坑區,NPSK,日月亭深坑地下停車場,新北市深坑區文化街與平埔街口B1、B2,1,立體式多目標附建停車場,0800-021111,小型車計時每小時40元;小型車月租每月4000元;,0~24時,312169.6,2766076,168,0,
170031,新北市,林口區,NPLK,Times林口文化三路第二停車場,新北市林口區文化三路1段636號對面,2,平面式臨時路外停車場,800888924,,0~24時,287548.6,2774410,71,0,
130028,新北市,土城區,NPTC,良瑋土城停車場,新北市土城區中央路4段185巷46號,2,平面式臨時路外停車場,800008508,小型車月租每月2000元;機車月租每月500元;,0~24時,292111,2760915.5,240,240,
110051,新北市,汐止區,NPXI,麟旺市集停車場,新北市汐止車站北側茄苳路至建成路間鐵路高架橋下P144-P151墩柱間土地,2,平面式多目標附建停車場,26489688,小型車計時每小時30元;小型車月租每月3000元;,0~24時,317069,2773849,21,0,
20105,新北市,三重區,NPSC,遠百企業三重分公司停車場,新北市三重區中正北路193巷45號B1、B2,2,立體式建築附設停車空間,2948-8988,小型車計時每小時30元;,8~24時,298021.9,2773770,300,0,
30106,新北市,中和區,NPZH,Times中和建康路停車場,新北市中和區建康路79號對面空地,2,平面式臨時路外停車場,800888924,小型車計時每小時80元;小型車月租每月8000元;,0~24時,299195.6,2765888,100,0,
140029,新北市,蘆洲區,NPLZ,吉駕停車場,新北市蘆洲區永安南路1段150-1號對面,2,平面式臨時路外停車場,932941000,小型車計時每小時30元;小型車月租每月3000元;,0~24時,297282.5,2774286,200,0,
100035,新北市,淡水區,NPTS,Times淡水北新路停車場,新北市淡水區北新路184巷50號B1,2,立體式建築附設停車空間,800888924,小型車計時每次80元;小型車月租每月5000元;,0~24時,295414.1,2785552,21,0,
20027,新北市,三重區,NPSC,三重區重陽國民小學善德樓地下1樓停車場,新北市三重區中正北路113號B1,2,立體式多目標附建停車場,29826272分機133,小型車月租每月750元;小型車月租每月1500元;小型車月租每月3000元;小型車月租每月2250元;,0~24時,298882,2773211.5,42,0,
130051,新北市,土城區,NPTC,大安停車場,新北市土城區大安路8號旁,1,平面式多目標附建停車場,2246-1708,小型車計時每小時20元;小型車月租每月2000元;小型車月租每月1600元;身障車月租每月1000元;機車計次每次10元;機車月租每月120元;,0~24時,293686.1,2762044,46,120,
130008,新北市,土城區,NPTC,永豐平面停車場,新北市土城區立德路113號對面,1,平面式臨時路外停車場,25573722,小型車計時每小時20元;小型車月租每月3600元;,0~24時,296886,2764416.5,103,0,
130048,新北市,土城區,NPTC,明德平面停車場,土城區永豐路145號對面,1,平面式都市計畫停車場,25573722,小型車計時每小時20元;小型車月租每月2400元;,0~24時,297089.5,2764075.5,40,0,
110052,新北市,汐止區,NPXI,遠雄購物中心停車場,新北市汐止區新台五路1段93-1號B2、B4,1,立體式建築附設停車空間,26982278,小型車計時每小時40元;小型車月租每月4000元;機車計次每次20元;機車月租每月500元;,0~24時,315320.8,2772736,775,1464,
30054,新北市,中和區,NPZH,大仁街停車場,新北市中和區立人街34號對面空地,2,平面式臨時路外停車場,2797-0380,小型車月租每月4500元;,0~24時,302347.5,2765212,26,0,
70003,新北市,樹林區,NPSL,保安立體停車場,新北市樹林區保安街一段7號,1,立體式-機械都市計畫停車場,0800-021111,小型車計時每小時20元;小型車月租每月2500元;,0~24時,293092.5,2765120,266,0,
30108,新北市,中和區,NPZH,宏達經營管理顧問有限公司連城停車場,新北市中和區連城路71號B1、B2,2,立體式-機械建築附設停車空間,29869257,小型車計時每小時50元;小型車月租每月5000元;,0~24時,300210.4,2765973,42,0,
10043,新北市,板橋區,NPBQ,板橋區國慶停車場,新北市板橋區重慶路278號對面,1,平面式都市計畫停車場,22461708,小型車計時每小時30元;小型車月租每月4000元;身障車月租每月3000元;,0~24時,296764,2765819,36,0,
110040,新北市,汐止區,NPXI,仲偉企業行下寮停車場,新北市汐止區新台五路一段82、84、86及88號建築物地下3樓,2,立體式建築附設停車空間,7741-5510,小型車計時每小時30元;小型車月租每月2000元;,0~24時,315880,2772809.5,123,0,
20024,新北市,三重區,NPSC,三光國小地下室停車場,新北市三重區大同南路157號,2,立體式建築附設停車空間,29753308,小型車月租每月3000元;,0~24時,300108,2772094,79,43,
30038,新北市,中和區,NPZH,鼎晟停車場(安平場),新北市中和區安平路79號地下2樓,2,立體式建築附設停車空間,2948-7287,小型車計時每小時60元;小型車月租每月6000元;,0~24時,301486.5,2765408.5,124,0,
90008,新北市,三峽區,NPSA,新北市三峽區防災公園平面停車場,新北市三峽區國光街60號,1,平面式都市計畫停車場,22526381,小型車計時每小時20元;小型車月租每月1500元;,0~24時,287834,2759011,57,0,
10011,新北市,板橋區,NPBQ,板橋區重慶公園地下停車場,新北市板橋區重慶路265號B1、B2,1,立體式多目標附建停車場,2955-4868,小型車計時每小時30元;小型車月租每月3400元;機車計次每次10元;,0~24時,296843.5,2765846,305,30,
50092,新北市,新莊區,NPXZ,Times新莊中正路,新北市新莊區中正路708-5號旁,2,平面式臨時路外停車場,800888924,小型車計時每小時100元;小型車月租每月10000元;,0~24時,292091.6,2768612,8,0,
20008,新北市,三重區,NPSC,二重國中地下停車場,新北市三重區忠孝路3段89號B1、B2,1,立體式多目標附建停車場,29868627,小型車計時每小時20元;小型車月租每月3800元;,0~24時,298305,2773191,207,0,
100018,新北市,淡水區,NPTS,北新停車場,新北市淡水區184巷口,2,平面式臨時路外停車場,2620-0271,小型車月租每月2000元;小型車計時每2小時50元;小型車計次300元;,0~24時,295264,2785615,65,12,
10127,新北市,板橋區,NPBQ,愛買南雅店路外停車場,新北市板橋區貴興路119巷,2,平面式臨時路外停車場,,小型車計時每小時20元;,9~23時,296048,2766056,105,0,
140030,新北市,蘆洲區,NPLZ,永巨盟停車場,新北市蘆洲區永安南路1段1巷1弄19號對面,2,平面式臨時路外停車場,950506518,小型車月租每月4000元;,0~24時,297974,2774021,124,0,
20058,新北市,三重區,NPSC,厚德國小地下停車場,新北市三重區忠孝路一段70號B1,1,立體式多目標附建停車場,22461708,小型車計時每小時20元;小型車月租每月4000元;小型車月租每月2000元;小型車月租每月3200元;小型車月租每月1000元;,0~24時,299334,2773750,95,0,
20014,新北市,三重區,NPSC,五常公園地下停車場,新北市三重區五華街7巷30號,1,立體式多目標附建停車場,22461708,小型車計時每小時20元;小型車月租每月4000元;小型車月租每月2000元;小型車月租每月3200元;,0~24時,300018,2775176,80,0,
130046,新北市,土城區,NPTC,帝國金城停車場,土城區金城路三段12號B2,2,立體式建築附設停車空間,22641793,小型車計時每小時30元;小型車月租每月3800元;,0~24時,296938.5,2764309,45,0,
60018,新北市,新店區,NPXD,新北市青少年圖書館停車場,新店區安康路2段151號(B1~B2),2,立體式多目標附建停車場,22127951,小型車計時每小時20元;小型車月租每月4000元;,0~24時,301587,2761398,62,42,
10070,新北市,板橋區,NPBQ,三民地下停車場,板橋區三民路一段210及212號B5及B6,2,立體式建築附設停車空間,89859111,小型車計時每小時60元;小型車月租每月5000元;,0~24時,297441.5,2767392.5,50,0,
50093,新北市,新莊區,NPXZ,Times 新莊中信街,新北市新莊區中原路486號旁,2,平面式臨時路外停車場,800888942,小型車計時每小時100元;小型車月租每月10000元;,0~24時,294880.9,2771897,59,0,
50085,新北市,新莊區,NPXZ,Times新莊UNIQLO,新莊區中正路52號,2,立體式建築附設停車空間,800888924,小型車計時每小時100元;小型車月租10000元;,0~24時,296674.9,2770430,85,0,
240002,新北市,平溪區,NPPX,十分第二停車場,新北市平溪區十分寮段十分寮小段97地號近遊客中心入口,2,平面式都市計畫停車場,24975757,大型車計時每小時200元;小型車計時每次50元;,0~24時,328788.9,2771094,106,0,
50014,新北市,新莊區,NPXZ,昌平國小停車場,新北市新莊區昌平街200號,2,立體式建築附設停車空間,,小型車月租每月3000元;身障車月租每月2400元;,0~24時,295959.5,2772097.5,57,0,
260003,新北市,貢寮區,NPGL,四季灣停車場,新北市貢寮區和美街48號,2,平面式建築附設停車空間,2490-1000#3400,小型車計次每次50元;機車計次每次20元;,0~24時,342483,2776807,318,23,
110034,新北市,汐止區,NPXI,遠東世界中心地下3樓停車場,新北市汐止區新台五路一段79號B3,2,立體式建築附設停車空間,26984757,;,0~24時,315194.5,2772686.5,126,1237,
70032,新北市,樹林區,NPSL,豐華大小型車停車場,新北市樹林區八德街588號對面,2,平面式臨時路外停車場,2260-9361,大型車計時每小時40元;大型車月租每月4000元;,0~24時,290175.7,2762506,0,0,
80011,新北市,鶯歌區,NPYG,昌福國小地下停車場,新北市鶯歌區永明街22號,2,立體式建築附設停車空間,86773322,小型車月租每月2000 元;小型車月租每月1300元;,0~24時,284249.5,2760903.5,64,0,
230015,新北市,八里區,NPBL,八仙樂園育樂股份有限公司停車場,新北市八里區下罟里下罟子中山路3段112號,2,平面式建築附設停車空間,26105200,;,0~24時,289273,2781940,90,0,
40009,新北市,永和區,NPYH,永平國小平面停車場,新北市永和區保生路25號,2,平面式建築附設停車空間,29259879,小型車月租1200元;小型車月租500元;,0~24時,301050.5,2766746,43,0,
20106,新北市,三重區,NPSC,福祥停車場,新北市三重區穀保街(崁頂街210巷74號後面),2,平面式臨時路外停車場,22990172,小型車月租每月2500元;,0~24時,297841.8,2773433,23,0,
10065,新北市,板橋區,NPBQ,中華電信學院第一停車場,板橋區民族路168號,2,平面式建築附設停車空間,,小型車月租每月2000元;小型車月租每月3500元;,0~24時,297010,2766786,44,0,
30083,新北市,中和區,NPZH,中和民享停車場,中和區自治街67號B1及B2,2,立體式建築附設停車空間,3234-7260,小型車計時每小時20元;小型車月租每月4000元;,0~24時,297995,2766263.5,151,0,
10038,新北市,板橋區,NPBQ,板橋區南雅西路環河平面停車場,新北市板橋區環河路與南雅西路二段175及板成路口,1,平面式臨時路外停車場,22461708,小型車計時每小時20元;小型車月租每月2400元;身障車月租每月2000元;,0~24時,295556,2767303.5,22,0,
10045,新北市,板橋區,NPBQ,板橋區聖若望停車場,新北市板橋區館前西路160巷及板城路口,1,平面式臨時路外停車場,22461708,小型車計時每小時20元;小型車月租每月2400元;身障車月租每月2000元;,0~24時,295609,2766912,77,0,
10033,新北市,板橋區,NPBQ,英士路平面停車場,新北市板橋區新海路及新海路135巷口,1,平面式臨時路外停車場,22461708,小型車計時每小時30元;小型車月租每月4000元;,0~24時,296442,2768515.5,23,0,
40010,新北市,永和區,NPYH,彩虹樓地下停車場,新北市永和區文化路1331F、B1,2,立體式多目標附建停車場,,小型車月租3100元;小型車月租2100元;小型車月租2100元;小型車月租1600元;小型車月租500元;,0~24時,301633.5,2767590.5,55,0,
50011,新北市,新莊區,NPXZ,後港新公園地下停車場,新莊區後港一路19號B2及B3,1,立體式多目標附建停車場,2207-0636,小型車計時每小時20元;小型車月租每月3000元;,0~24時,293259.5,2768692,181,0,
10059,新北市,新莊區,NPXZ,鴻金寶地下收費停車場,新北市新莊區民安路188巷5號B3,2,立體式-機械建築附設停車空間,22070088*130,小型車計時每小時30元;小型車月租每月3000元;,0~24時,292904.5,2768418,134,0,
70033,新北市,樹林區,NPSL,圳福收費停車場,新北市樹林區樹新路250-1號拖吊場旁,2,平面式臨時路外停車場,933735971,小型車月租每月1500元;,0~24時,293366.7,2765644,61,0,
20107,新北市,三重區,NPSC,光武停車場,新北市三重區車路頭街151號旁空地,2,平面式臨時路外停車場,932085812,小型車計時每小時50元;小型車月租每月2500元;,0~24時,298803.8,2774398,40,0,
110027,新北市,汐止區,NPXI,遠東科技中心停車場,新北市汐止區大同路二段125號B1,2,立體式建築附設停車空間,8692-6189,小型車計時每小時40元;小型車月租每月4000元;,0~24時,315654.5,2773043.5,83,0,
50094,新北市,新莊區,NPXZ,Times 新莊福壽街第2,新北市新莊區福壽街與昌智路交叉口,2,平面式臨時路外停車場,800888924,小型車計時每小時80元;小型車月租每月8000元;,0~24時,296213.8,2772134,81,0,
60033,新北市,新店區,NPXD,江陵春一期(B1F)停車場,新北市新店區民權路113號B1,2,立體式建築附設停車空間,82192537,小型車月租每月5000元;小型車計次每次100元;,8~22時,304156,2763950,43,0,
30067,新北市,中和區,NPZH,永振停車場,新北市中和區南山路159號,2,平面式建築附設停車空間,22422899,小型車計時每小時20元;小型車計時每小時40元;小型車計時每小時15元;小型車月租每月3800元;,0~24時,300803.5,2765333.5,97,0,
30067,新北市,中和區,NPZH,永振停車場,新北市中和區南山路159號,2,平面式建築附設停車空間,2242-2899,小型車計時每小時20元;小型車計時每小時40元;小型車計時每小時15元;小型車月租每月3800元;,0~24時,300803.5,2765333.5,97,0,
30067,新北市,中和區,NPZH,永振停車場,新北市中和區南山路159號,2,平面式建築附設停車空間,22422899,小型車計時每小時20元;小型車計時每小時40元;小型車計時每小時15元;小型車月租每月3800元;,0~24時,300803.5,2765333.5,97,0,
30067,新北市,中和區,NPZH,永振停車場,新北市中和區南山路159號,2,立體式建築附設停車空間,22422899,小型車計時每小時20元;小型車計時每小時40元;小型車計時每小時15元;小型車月租每月3800元;,0~24時,300803.5,2765333.5,97,0,
30067,新北市,中和區,NPZH,永振停車場,新北市中和區南山路159號,2,立體式建築附設停車空間,22422899,小型車計時每小時20元;小型車計時每小時40元;小型車計時每小時15元;小型車月租每月3800元;,0~24時,300803.5,2765333.5,97,0,
30078,新北市,中和區,NPZH,博客停車場開發股份有限公司景平站,新北市中和區景平路258B2,2,立體式建築附設停車空間,2948-8889,小型車計時每小時40元;小型車月租每月4800元;,0~24時,301965,2765040.5,123,0,
30056,新北市,中和區,NPZH,大時代停車場,新北市中和區景新街328號地下3樓,2,立體式-機械建築附設停車空間,2949-1292,小型車計時每小時30元;小型車計時每小時20元;小型車計次每次100元;小型車月租每月3500元;,0~24時,301660,2764883.5,28,0,
110053,新北市,汐止區,NPXI,新北市汐止區林森停車場,新北市汐止區林森街73巷3號前約100公尺處,2,平面式多目標附建停車場,980014801,小型車月租每月4000元;,0~24時,312977.1,2770416,123,0,
110054,新北市,汐止區,NPXI,新北市汐止區橫科停車場,新北市汐止區橫科路119號左約100公尺處,2,平面式多目標附建停車場,980014801,小型車月租每月4000元;,0~24時,312599.7,2771502,103,0,
40025,新北市,永和區,NPYH,漢傑企業-永安站停車場,新北市永和區中和路499號B2,2,立體式建築附設停車空間,2232-4287,小型車月租每月4000元;小型車計時每小時30元;小型車計時每小時40元;,0~24時,301542,2766135,52,0,
10104,新北市,板橋區,NPBQ,板橋華翠橋下H、I、K平面停車場,新北市板橋區(華翠橋下,1,立體式-機械多目標附建停車場,29545028,小型車計時每小時20元;小型車月租每月2600元;,0~24時,297825.6,2768129,132,15,
100039,新北市,淡水區,NPTS,淡水HI-CITY停車場,新北市淡水區北新路2段16-58號B3,2,立體式建築附設停車空間,24551299,小型車計時每小時20元;小型車月租每月4000元;,0~24時,295199.3,2785529,78,0,
140014,新北市,蘆洲區,NPLZ,新北市蘆洲區忠義國民小學地下停車場,新北市蘆洲區光榮路99號B1,2,立體式多目標附建停車場,2289-9591,大型車月租500元;小型車月租800元;小型車月租1600元;小型車月租每月3200元;小型車計次每次60元;,0~24時,296810,2775748,99,0,
110011,新北市,汐止區,NPXI,新北市汐止區金龍國小停車場,新北市汐止區明峰街201號,2,立體式多目標附建停車場,26959941,小型車月租每月2000元;,0~24時,313349.5,2773601.5,68,0,
140022,新北市,蘆洲區,NPLZ,功學社停車場,新北市蘆洲區中山二路162號B1、B2,2,立體式建築附設停車空間,2283-3299,小型車計時每小時40元;小型車計時每小時10元;小型車月租每月3000元;,0~24時,297483,2774873.5,167,0,
50095,新北市,新莊區,NPXZ,富貴平面停車場,新北市新莊區長壽街與富貴路三角地,2,平面式臨時路外停車場,85213478,小型車計時每小時60元;小型車計次每次300元;小型車月租每月3600元;,0~24時,296183.2,2772255,69,0,
70010,新北市,樹林區,NPSL,大同國民小學活動中心地下停車場,新北市樹林區大同街43號,2,立體式多目標附建停車場,86865486,小型車月租每月2400元;小型車月租每月1200元;,0~24時,292144.5,2763785,24,0,
230018,新北市,八里區,NPBL,新北市八里區龍米平面停車場,新北市八里區龍米路2段150號隔壁,1,平面式臨時路外停車場,25421501,小型車月租每月3000元;小型車計時每小時30元;機車計次每次10元;,0~24時,293960.9,2783297,168,30,
60077,新北市,新店區,NPXD,宏達經營管理顧問有限公司碧潭停車場,新北市新店區北宜路1段16號B2,2,立體式建築附設停車空間,29869257,小型車計時每小時30元;小型車月租每月5000元;,0~24時,304305.9,2761139,60,0,
50051,新北市,新莊區,NPXZ,思賢立體停車場,新北市新莊區福樂街73號,1,立體式-塔臺都市計畫停車場,2994-3641,小型車計時每小時20元;小型車月租每月3000元;小型車月租每月2000元;,0~24時,296083,2771135,254,0,
60002,新北市,新店區,NPXD,三民地下停車場,新北市新店區三民路20-1號,1,立體式建築附設停車空間,02-29118356,小型車月租每月4000元;小型車計時每小時30元;,0~24時,304258.5,2762684.5,253,0,
30007,新北市,中和區,NPZH,中和民樂立體停車場,新北市中和區民樂路65號B1F、1F~6F、頂樓,1,立體式都市計畫停車場,8226-6628,小型車計時每小時20元;小型車月租每月4000元;,0~24時,298831.8522,2766027.257,255,0,
30087,新北市,中和區,NPZH,中和地政事務所地下停車場,新北市中和區復興路278號B1~B3,1,立體式多目標附建停車場,27935818,小型車計時每小時30元;小型車計時每小時20元;小型車月租每月3000元;,0~24時,300724.5,2764826.5,135,0,
10068,新北市,板橋區,NPBQ,板橋金站停車場,新北市板橋區館前西路6號地下1樓至地下3樓,2,立體式-機械建築附設停車空間,29591800,小型車計時每小時50元;,0~24時,296341.5,2766645,43,0,
60049,新北市,新店區,NPXD,世紀停車場,新北市新店區寶橋路235巷137號B1,2,立體式建築附設停車空間,8919-1682,小型車計時第1小時50元;小型車計時每次500元;,0~24時,305756,2764166,20,0,
10130,新北市,板橋區,NPBQ,板橋國民運動中心停車場,新北市板橋區智樂路6號B1~B3,2,立體式建築附設停車空間,22588886,小型車計時每小時20元;小型車月租每月4000元;小型車月租每月3200元;,06~22時,296248.2,2768364,236,94,
30058,新北市,中和區,NPZH,艾德蒙海外股份有限公司停車場,新北市中和區建一路176號B2,2,立體式建築附設停車空間,82273006,小型車月租每月7500元;,0~24時,299242.5,2765565.5,150,0,
100015,新北市,淡水區,NPTS,艾德蒙海外股份有限公司淡水竹圍第一期停車場,新北市淡水區民族路31巷1號及33巷10號B2,2,立體式建築附設停車空間,82273006,小型車月租每月4500 元;,0~24時,296660,2780928.5,8,0,
100014,新北市,淡水區,NPTS,艾德蒙海外股份有限公司淡水竹圍第二期停車場,新北市淡水區民族路31巷28-100號B2、B3,2,立體式建築附設停車空間,82273006,小型車月租每月4500 元;,0~24時,296680.5,2780996,63,0,
100013,新北市,淡水區,NPTS,艾德蒙海外股份有限公司淡水竹圍第三期停車場,新北市淡水區民族路31巷1號B2、B3(營業範圍詳見登記證電子檔),2,立體式建築附設停車空間,82273006,小型車月租每月4500 元;,0~24時,296534,2781002.5,91,0,
10129,新北市,板橋區,NPBQ,Times 板橋南雅夜市,新北市板橋區南雅東路29巷3-1號旁,2,平面式臨時路外停車場,800888924,小型車計時每小時80元;小型車月租每月8000元;,0~24時,295836.2,2766501,7,0,
20029,新北市,三重區,NPSC,二重國小地下停車場,新北市三重區大有街10號,2,立體式多目標附建停車場,2986-3280,小型車計時每小時20元;小型車月租每月4000元;小型車月租每月1000元;身障車月租每月2000元;身障車月租每月500元;,0~24時,298217.5,2773097,92,0,
10131,新北市,板橋區,NPBQ,新北市板橋區新北市立圖書館地下停車場,新北市板橋區貴興路139號B1~B3,1,立體式建築附設停車空間,29645836,小型車計時每小時30元;小型車計時每小時20元;小型車計次每次300元;小型車月租每月6000元;機車計次每次10元;機車月租每月200元;,0~24時,295902.8,2766068,228,278,
50099,新北市,新莊區,NPXZ,新北市興化國小附設停車場,新北市新莊區五工二路50巷2號,2,平面式多目標附建停車場,22991001,小型車月租每月2500元;小型車月租每月2000元;小型車月租每月1500元;,0~24時,296572.2,2773155,60,0,
100017,新北市,淡水區,NPTS,馬偕紀念醫院淡水分院附設收費停車場,淡水區民生路45號馬偕樓B2、B3及綜研大樓,2,立體式建築附設停車空間,2809-4661,小型車計時每小時30元;小型車計次每次180元;小型車計時每次90元;,0~24時,296577,2781254,360,0,
30109,新北市,中和區,NPZH,宏達經營管理顧問有限公司中福停車場,新北市中和區景平路666號B2、B3,2,立體式-機械建築附設停車空間,29869257,小型車計時每小時40元;小型車月租每月4000元;,0~24時,300198.7,2765973,37,0,
20059,新北市,三重區,NPSC,帝國力行停車場,新北市三重區力行路一段52號旁,2,平面式臨時路外停車場,5574-0172,小型車計時每小時20元;小型車計時每小時30元;小型車月租每月3600元;,0~24時,298938,2773443.5,82,0,
100008,新北市,淡水區,NPTS,淡水區公有三民立體停車場,新北市淡水區建設街6號,1,立體式都市計畫停車場,2626-1179,小型車計時每小時50元;,0~24時,294271.5,2784945.5,58,0,
40042,新北市,永和區,NPYH,大家停車一場,新北市永和區環河東路8號,2,平面式臨時路外停車場,935969933,小型車月租每月2000元;小型車月租每月2500元;,0~24時,303405.1,2766148,50,0,
260006,新北市,貢寮區,NPGL,福隆停車場,新北市貢寮區福隆里興隆街36號前,2,平面式都市計畫停車場,,大型車計時每小時50元;小型車計時每小時20元;,0~24時,345306.4,2767973,146,6,
20007,新北市,三重區,NPSC,三張地下停車場,新北市三重區大智街188號,1,立體式建築附設停車空間,"8985-6460,8985-0871",小型車計時每小時20元;小型車月租每月4000元;,0~24時,299457.5,2773669.5,282,0,
20017,新北市,三重區,NPSC,綜合體育館地下停車場,新北市三重區新北大道1段2號B1、B2,2,立體式多目標附建停車場,2986-7222,小型車計時每小時20元;小型車月租每月4000元;,0~24時,299576,2772729.5,294,0,
240001,新北市,平溪區,NPPX,平溪停三停車場,新北市平溪區南山坪136號對面,1,平面式都市計畫停車場,800021111,小型車月租每月4500元;小型車計時每小時40元;,0~24時,328949.5,2771178.5,124,0,
90029,新北市,三峽區,NPSA,三峽國小地下停車場,新北市三峽區中山路16號B1、B2,1,立體式多目標附建停車場,77310360,小型車計時每小時20元;小型車計時每小時10元;小型車計時每小時40元;小型車月租每月2800元;小型車月租每月2500元;小型車月租每月2000元;小型車月租每月1000元;,0~24時,287107.9,2758641,259,0,
40045,新北市,永和區,NPYH,中正堤外停車場,新北市永和區中正橋北往南下堤外匝道之右側,2,平面式臨時路外停車場,800021111,小型車計時每小時20元;小型車月租每月3000元;,0~24時,301866,2767920,122,0,
20001,新北市,三重區,NPSC,新北市三重區溪美立體停車場,新北市三重區自強路4段55號,1,立體式建築附設停車空間,8985-9572,小型車計時每小時20元;小型車月租每月4000元;機車計次每次20元;機車月租每月300元;機車月租重機每月600元;,0~24時,299493,2774539.5,357,108,
40005,新北市,永和區,NPYH,新北市永和區福和國中地下停車場,永和區永亨路96號,1,立體式建築附設停車空間,8921-6933,小型車計時每小時20元;小型車月租每月4000元;,0~24時,302716.5,2766383,554,0,
20006,新北市,三重區,NPSC,聯邦地下停車場,新北市三重區中華路125號B2、B3,1,立體式建築附設停車空間,29888358,小型車月租每月4000元;小型車計時每小時30元;,0~24時,298841,2772974.5,193,0,
10109,新北市,板橋區,NPBQ,便利停車場板橋站,新北市板橋區南門街61號B2-B3,2,立體式建築附設停車空間,89698237,小型車計時每小時50元;小型車月租每月5000元;,0~24時,296159.1,2766789,37,0,
60061,新北市,新店區,NPXD,安康市場地下二樓附設停車場,新店區安康路二段120號B2,2,立體式多目標附建停車場,25031111#3083,小型車月租每月2500元;身障車月租每月2000元;,0~24時,301765.5,2761754.5,36,0,
50100,新北市,新莊區,NPXZ,Times新莊昌德街,新北市新莊區昌德街與福壽街交叉口附近,2,平面式臨時路外停車場,800888924,小型車計時每小時80元;小型車月租每月8000元;,0~24時,296207.9,2771959,17,0,
30065,新北市,中和區,NPZH,潤泰全球股份有限公司中和分公司B3、B4、6F停車場,新北市中和區中山路二段228號,2,立體式建築附設停車空間,82411111,小型車計時每小時50元;,0~24時,300368,2766172,337,0,
10064,新北市,板橋區,NPBQ,馥都飯店停車場,新北市板橋區縣民大道1段189號B1~B4,2,立體式建築附設停車空間,29658000,小型車計時每小時100元;,07~23時,296388.5,2766847,49,0,
60010,新北市,新店區,NPXD,安康立體停車場,新北市新店區安康路二段120號4F~10F、頂樓,1,立體式建築附設停車空間,2212-1762,小型車計時每小時30元;小型車計時每小時20元;小型車計次每次200元;小型車月租每月3000元;小型車月租每月1800元;,0~24時,301750.5,2761678.5,200,0,
20060,新北市,三重區,NPSC,幸福水漾公園區,新北市三重區重新橋北側自行車道與疏洪十六路交叉口(鄰幸福水漾公園),2,平面式臨時路外停車場,29748453,小型車計時每小時20元;小型車計時每小時10元;小型車月租每月1800元;小型車計次每次150元;,0~24時,298615,2771446.5,175,0,
20079,新北市,三重區,NPSC,觀光市集北側停車場(堤14),新北市三重區重新橋北側-新莊堤外道路與疏洪十六路交叉口,2,平面式臨時路外停車場,29748453,小型車計時每小時20元;小型車計時每小時10元;小型車月租每月1800元;機車計次每次10元;機車月租每月300元;小型車計次每次150元;,0~24時,0,0,267,628,
20068,新北市,三重區,NPSC,觀光市集南側停車場,新北市三重區重新橋南側新莊堤外道路與疏洪十六路交叉口(鄰疏洪運動公園),2,平面式臨時路外停車場,29748453,小型車計時每小時20元;小型車計時每小時10元;小型車月租每月1800元;機車計次每次10元;機車月租每月300元;小型車計次每次150元;,0~24時,298604.5,2771382.5,411,823,
170033,新北市,林口區,NPLK,國立臺灣師範大學林口校區資訊與教學大樓地下停車場,新北市林口區仁愛路1段2號,2,立體式多目標附建停車場,77148601,小型車月租300元;小型車月租720元;,06~23時,290555.5,2773272,69,0,
160009,新北市,泰山區,NPTA,和平泰山停車場,新北市泰山區台麗街65-1號,2,平面式建築附設停車空間,29047071,小型車計次每次200元;機車計次每次50元;,07~24時,292933,2770093.5,96,96,
60078,新北市,新店區,NPXD,新環停車場,新北市新店區環河路181-1號旁空地,1,平面式臨時路外停車場,0972-743-936,小型車計時每小時40元;小型車月租每月4000元;小型車月租每月2000元;,0~24時,304183.5,2762301,108,0,
90030,新北市,三峽區,NPSA,富誠學成停車場,新北市三峽區學成路258號對面空地,2,平面式臨時路外停車場,27546661,小型車計時每小時60元;小型車月租每月8000元;,0~24時,287844.4,2759425,23,0,
50050,新北市,新莊區,NPXZ,頭前國中地下停車場,新北市新莊區思源路485號B1~B3,1,立體式建築附設停車空間,85213420,小型車計時每小時30元;小型車月租每月3500元;,0~24時,296333.5,2771956.5,256,0,
30064,新北市,中和區,NPZH,時代地下停車場,新北市中和區建康路101-119號地下B1-B3,2,立體式建築附設停車空間,2228-8613,小型車計時每小時60元;小型車月租每月6000元;,0~24時,299340,2765915.5,371,0,
10132,新北市,板橋區,NPBQ,愛買南雅店收費停車場,新北市板橋區貴興路101號,2,立體式建築附設停車空間,800002088,小型車計時每小時50元;,0~24時,296049.6,2766152,204,153,
30012,新北市,中和區,NPZH,圓通停車場,新北市中和區圓通路369巷33號,1,平面式都市計畫停車場,2242-5455,小型車計時每小時20元;小型車月租每月3000元;小型車月租每月2000元;,0~24時,299550.5,2764506,170,0,
130014,新北市,土城區,NPTC,土城區綜合體育場附設停車場,新北市土城區裕民路193-1號,2,平面式建築附設停車空間,(02)8273-1775,小型車月租每月1500元;,0~24時,295820.5,2764428.803,58,0,
20002,新北市,三重區,NPSC,中山立體停車場,新北市三重區新北大道1段6號,1,立體式都市計畫停車場,2971-0770,小型車計時每小時20元;小型車月租每月4000元;,0~24時,299397,2772614,415,0,
30060,新北市,中和區,NPZH,遠東世紀廣場第一期管理委員會停車場,中和區建一路建一路162號B1,1,立體式建築附設停車空間,82280666#163,小型車計時每小時50元;大型車月租每月4200元;大型車計次每次300元;小型車計時每次50元;小型車計次每次50元;小型車計次每次50元;,0~24時,299244.5,2765648,110,0,
50029,新北市,新莊區,NPXZ,新莊區農會停車場,新北市新莊區中正路80號B2-B4,2,立體式-機械建築附設停車空間,22777988-1310,小型車計時每小時40元;小型車計時每小時60元;小型車月租4100元;小型車月租每月3000元;小型車月租3300元;小型車月租2700元;,0~24時,296239.5,2770049,345,0,
130005,新北市,土城區,NPTC,延吉立體停車場,新北市土城區德峰街65號,1,立體式都市計畫停車場,22606038,小型車計時每小時20元;小型車計時每小時30元;小型車計時每小時10元;小型車月租每月2800元;小型車月租每月1700元;身障車月租每月1500元;機車月租每月1400元;,0~24時,297415.5,2764446.5,438,50,
130004,新北市,土城區,NPTC,裕生立體停車場,新北市土城區裕生路106號,1,立體式都市計畫停車場,22607038,小型車計時每小時20元;小型車計時每小時30元;小型車計時每小時10元;小型車月租每月3000元;小型車月租每月2500元;身障車月租每月1500元;,0~24時,295083.5,2764139,177,0,
260007,新北市,貢寮區,NPGL,龍洞灣海洋公園停車場,新北市貢寮區龍洞街63-3號對面,2,平面式都市計畫停車場,24909258,大型車計次每次100元;小型車計次每次50元;,0~24時,342396.9,2779123,19,0,
30020,新北市,中和區,NPZH,錦和高中收費停車場,新北市中和區錦和路163號,2,平面式多目標附建停車場,22498566,小型車月租每月2500元;小型車月租每月2500元;,0~24時,299648.5,2764956.5,16,0,
60021,新北市,新店區,NPXD,新店溪陽光運動園區停車場,新店區陽光橋下陽光運動園區高灘地,2,平面式臨時路外停車場,955357239,小型車計時每小時20元;小型車月租每月4000元;機車免費免費;,0~24時,302344,2763306,207,196,
20005,新北市,三重區,NPSC,正義公園地下停車場,新北市三重區雙園街1號地下1樓,1,立體式多目標附建停車場,2983-6614,小型車計時每小時20元;小型車月租每月4000元;,0~24時,300183.5,2773459.5,196,0,
10134,新北市,板橋區,NPBQ,全群停車場,新北市板橋區四維路230巷2號,2,立體式建築附設停車空間,22535566,小型車計時每小時20元;小型車計次每次100元;小型車月租每月5000元;,0~24時,296839.5,2768969,61,0,
280006,新北市,萬里區,NPWA,野柳停車場,新北市萬里區野柳里港東路167-1號對面,2,平面式臨時路外停車場,2492-2206,大型車計次每次150元;小型車計次每次50元;小型車月租每月1500元;,0~24時,319659,2788693,314,0,
280009,新北市,萬里區,NPWA,龜吼停車場,新北市萬里區龜吼里漁澳81號對面停車場,2,平面式臨時路外停車場,2492-7921,小型車計次每次50元;小型車月租每月1500元;,0~24時,319185.3,2787678,76,0,
10135,新北市,板橋區,NPBQ,潤智大小型停車場,新北市板橋區大觀路3段50巷52號旁,2,平面式臨時路外停車場,936160805,大型車計時每小時50元;大型車月租每月5000元;小型車計時每小時30元;小型車月租每月3000元;,0~24時,293681.5,2765405,31,0,
50101,新北市,新莊區,NPXZ,晶冠廣場地下停車場,新北市新莊區五工路66號B1~B3,2,立體式-機械建築附設停車空間,89783637,小型車計時每小時20元;小型車月租每月3200元;小型車月租每月2560元;機車免費免費;,0~24時,296241.2,2772931,381,180,
60036,新北市,新店區,NPXD,Times台北矽谷停車場,新店區北新路三段205、205-1號B3,2,立體式建築附設停車空間,2504-6098,小型車計時每小時80元;小型車月租每月8000元;,0~24時,304517.5,2764152,319,0,
40022,新北市,永和區,NPYH,宏達經營管理顧問有限公司北城停車場,永和區民權路53號B3~B4,2,立體式建築附設停車空間,2943-5359,小型車計時每小時20元;小型車月租每月3500元;,0~24時,302476.5,2765495,194,0,
50102,新北市,新莊區,NPXZ,中信國小收費停車場,新 北市新莊區忠信街168號,2,立體式多目標附建停車場,85211131,小型車月租每月3000元;小型車月租每月1700元;小型車月租每月1000元;,0~24時,295233.8,2771590,26,0,
60026,新北市,新店區,NPXD,德安停車場,新店區安康路二段300號旁,2,平面式臨時路外停車場,22122736,;,0~24時,300915.5,2761234.5,68,0,
70016,新北市,樹林區,NPSL,樹林國小慶福樓地下室及家長接送區停車場,新北市樹林區育英街176號 B1慶福樓地下室與家長接送區,2,立體式多目標附建停車場,2681-2014#837,小型車月租每月2500元;小型車月租每月1500元;,0~24時,292154.5,2764665,33,0,
20019,新北市,三重區,NPSC,新北市立聯合醫院三重院區停車場,新北市三重區新北大道1段3號,2,立體式多目標附建停車場,986816383,小型車計時每小時30元;小型車月租每月4000元;機車計次每次10元;,0~24時,299547,2772599.5,150,86,
60067,新北市,新店區,NPXD,矽谷溫泉會館停車場,新店區中正路491-1號,2,立體式建築附設停車空間,2218-0101,小型車計時每小時40元;小型車月租每月4500元;,0~24時,303869,2763974,120,0,
160016,新北市,泰山區,NPTA,新北市新五泰國民運動中心附設地下停車場,新北市泰山區全興路167號B1、B2,2,立體式建築附設停車空間,22968860,小型車計時每小時20元;小型車月租每月4000元;小型車月租每月3200元;機車免費0元;,0~24時,293846.7,2771976,217,81,
90021,新北市,三峽區,NPSA,台灣聯通三峽停車場,三峽區和平街65號B2,2,立體式建築附設停車空間,2523-5000,小型車計時每小時40元;小型車月租每月4000元;,0~24時,287360.5,2758792.5,21,0,
210003,新北市,三芝區,NPSZ,新北市淺水灣停車場,新北市三芝區后厝里北勢子45-32號(後厝派出所)旁,2,平面式臨時路外停車場,935513448,大型車計次每次100元;小型車計次每次50元;機車計次每次50元;機車計次每次10元;小型車月租每月1500元;,0~24時,297377,2793731.5,55,121,
140031,新北市,蘆洲區,NPLZ,溪墘公園地下停車場,新北市蘆洲區信義59巷2號旁,1,立體式多目標附建停車場,2281-2238,小型車計時每小時20元;小型車計時每小時30元;小型車計次每次120元;小型車月租每月3400元;小型車月租每月3000元;身障車月租每月2000元;,0~24時,298046.9,2774677,173,0,
10110,新北市,板橋區,NPBQ,新北市板橋區板橋高級中學地下停車場,新北市板橋區文化路1段25號B1,1,立體式多目標附建停車場,29663558,小型車計時每小時20元;小型車計時每小時30元;小型車月租每月4000元;,0~24時,296379.7,2767196,229,0,
30110,新北市,中和區,NPZH,和城平面停車場,新北市中和區和城路1段263號,2,平面式多目標附建停車場,89859111,小型車計時每次50元;小型車月租每月5000元;,0~24時,299013.6,2765142,82,0,
10085,新北市,板橋區,NPBQ,板橋國小地下停車場,板橋區文化路一段23號B1~B3,1,立體式建築附設停車空間,89698938,小型車計時每小時30元;小型車月租每月4000元;,0~24時,296238.5,2767099.5,224,0,
60034,新北市,新店區,NPXD,新店慈濟醫院地下停車場,新北市新店區建國路289號1F、B1、B2,1,立體式建築附設停車空間,8219-2208,小型車計時每小時30元;小型車月租每月4800元;,0~24時,304156.5,2764272.5,311,477,
110056,新北市,汐止區,NPXI,Times 汐止新台五路停車場,新北市汐止區新台五路1段75號旁,2,平面式臨時路外停車場,800888924,小型車計時每小時100元;小型車月租每月8000元;,0~24時,315064.5,2772614,95,0,
60079,新北市,新店區,NPXD,便利停車場安德站,新北市新店區安德街與安德街57巷交叉口空地,2,平面式臨時路外停車場,22121317,小型車計時每小時40元;小型車計次每次130元;小型車月租每月3500元;,0~24時,301576.1,2761671,160,0,
10069,新北市,板橋區,NPBQ,星聚點板橋站停車場,板橋區中山路一段1號B2,2,立體式建築附設停車空間,2959-7868,小型車計時每小時80元;,0~24時,296367.5,2766678.5,79,0,
110057,新北市,汐止區,NPXI,上嘉汐止火車站停車場,新北市汐止區信義路1號(汐止火車站1樓),2,立體式建築附設停車空間,86923119,小型車計時每小時60元;小型車月租每月6000元;小型車月租每月4000元;機車計次每次30元;機車月租每月700元;,0~24時,316737.6,2773497,115,466,
90003,新北市,三峽區,NPSA,新北市三峽區長福平面停車場,三峽區光明路1號,1,平面式都市計畫停車場,22526381,大型車計次150元;大型車計次180元;小型車計次每次50元;小型車計次每次90元;小型車月租每月1800元;,0~24時,287597.5,2758347,98,0,
90016,新北市,三峽區,NPSA,新北市三峽區光明平面停車場,新北市三峽區光明路39號之1,1,平面式都市計畫停車場,22526381,小型車計時每小時30元;小型車月租每月1800元;,0~24時,287803.5,2758118,44,0,
90017,新北市,三峽區,NPSA,新北市三峽區三角湧平面停車場,新北市三峽區中華路與中華路3巷交叉口,1,平面式都市計畫停車場,22526381,小型車計時每小時30元;小型車月租每月1350元;,0~24時,287866.5,2758370.5,33,0,
130036,新北市,土城區,NPTC,博客金城站,土城區金城路三段200之5、6、7、8、9、10、11、12號,2,立體式建築附設停車空間,2948-8889,小型車計時每小時60元;小型車月租每月3000元;,0~24時,297336.5,2764537,42,0,
60005,新北市,新店區,NPXD,新北市新店區大豐平面停車場,新店區二十張路143之1號,1,平面式臨時路外停車場,2219-6733,小型車計時每小時30元;小型車月租每月3000元;,0~24時,304049.5,2763522,62,10,
60048,新北市,新店區,NPXD,新北市新店區安坑臨時平面停車場,新北市新店區安康路2段341巷旁,1,平面式臨時路外停車場,2215-7638,小型車計時每小時30元;小型車月租每月3000元;,0~24時,300137,2760888.5,43,5,
60012,新北市,新店區,NPXD,新北市新店區建國平面停車場,新店區建國路356-1號,1,平面式都市計畫停車場,86650902,小型車計時每小時30元;小型車月租每月3000元;,0~24時,304249,2764366,65,10,
270002,新北市,金山區,NPJS,立宥實業社金山國小停車場,新北市金山區文化路2號(金山高級中學旁),2,平面式臨時路外停車場,926779790,小型車計次每次60元;小型車計次每次80元;,0~24時,314127.5,2790645.5,49,0,
70035,新北市,樹林區,NPSL,百驛企業有限公司後站停車場,新北市樹林區後站街3巷12號對面空地,2,平面式臨時路外停車場,86752028,機車計時每小時10元;機車計次每次50元;機車月租每月1000元;,0~24時,292745.6,2764779,0,586,
20109,新北市,三重區,NPSC,光興國小地下停車場,新北市三重區正義南路62號,1,立體式多目標附建停車場,29764296,小型車計時每小時20元;小型車月租每月4000元;小型車月租每月3200元;小型車月租每月2400元;小型車月租每月2000元;機車月租每月100元;,0~24時,300396.6,2772551,304,88,
110055,新北市,汐止區,NPXI,北峰國民小學附設停車場,新北市汐止區環河街1 號,2,平面式多目標附建停車場,26941817#251,小型車月租每月1000元;,18~22時,313722.4,2772901,13,0,
10137,新北市,蘆洲區,NPLZ,Times蘆洲三民路停車場,新北市蘆洲區三民路505號旁,2,平面式臨時路外停車場,800888924,機車計時每小時80元;機車月租每月8000元;,0~24時,296630.7,2776086,0,47,
160011,新北市,泰山區,NPTA,三群停車場,新北市新莊區中環路2段裕信華六街交叉口旁,2,平面式臨時路外停車場,0701-0800-593,小型車月租2300元;,0~24時,294568.5,2770691.5,245,0,
30063,新北市,中和區,NPZH,智富連城工商園區停車場,中和區連城路232-1號B1,2,立體式建築附設停車空間,22222014,小型車計時每小時60元;,0~24時,299407,2765547,21,0,
60031,新北市,新店區,NPXD,江陵禮一期停車場,新店區民權路63、65、67、69號B5、B6、B7,2,立體式建築附設停車空間,29102800,小型車計時每小時40元;小型車月租每月4200元;,0~24時,304415.5,2763981.5,163,0,
30111,新北市,中和區,NPZH,中和員山停車場,新北市中和區員山路560號對面空地,2,平面式臨時路外停車場,,"小型車計時每小時100元;小型車月租每月10,000元;",0~24時,298317.3,2767014,27,0,
10029,新北市,板橋區,NPBQ,新北市板橋區新海抽水站平面停車場,新北市板橋區中正路511號,1,平面式臨時路外停車場,89697463,小型車計時每小時20元;小型車計時每小時30元;大型車計時每小時40元;大型車計時每小時60元;小型車月租每月3000元;大型車月租每月6000元;,0~24時,295954,2768975.5,34,10,
60080,新北市,新莊區,NPXZ,昌平停車場,新北市新莊區中央路與昌平街交叉口50公尺處,2,平面式臨時路外停車場,919218244,小型車計時每小時20元;小型車月租每月2000元;,0~24時,295751.6,2772391,105,0,
10138,新北市,新莊區,NPXZ,福美128停車場,新北市新莊區福美街128巷20號對面,2,平面式臨時路外停車場,919218244,小型車計時每小時20元;小型車月租每月2000元;,0~24時,296569.9,2772305,64,0,
10136,新北市,板橋區,NPBQ,仁化收費停車場,新北市板橋區仁化街54號旁,2,平面式臨時路外停車場,22523745,小型車計時每小時40元;,0~24時,298019.8,2769392,11,0,
30112,新北市,中和區,NPZH,光寶科技中和大樓C棟停車場,新北市中和區建六路77號,2,立體式建築附設停車空間,22226181,小型車計時每小時50元;,09~17時,299221,2766114,42,0,
20072,新北市,三重區,NPSC,忠孝自強停車場,三重區忠孝路二段35號對面,1,平面式臨時路外停車場,939054138,小型車計時每小時30元;大型車月租每月2500元;,0~24時,299060,2773743,42,0,
20034,新北市,三重區,NPSC,碧華停車場,新北市三重區仁華街118巷9-8號旁,2,平面式臨時路外停車場,939054138,小型車計時每小時30元;小型車月租每月2500元;,0~24時,298937,2775227,28,10,
10054,新北市,板橋區,NPBQ,板橋區府中一區、二區、三區平面停車場,新北市板橋區縣民大道、重慶路口,2,平面式臨時路外停車場,2944-1489,小型車計時每小時100元;小型車月租每月8000元;機車月租每月2000元;機車計次每次60元;,0~24時,296526,2766952,39,81,
50033,新北市,新莊區,NPXZ,便利停車場新莊二站,新北市新莊區中正路649-1號B2,2,立體式建築附設停車空間,2908-7142,小型車月租每月3500元;小型車計時每小時40元;,0~24時,293408.5,2769277,201,0,
70036,新北市,樹林區,NPSL,鵝媽媽停車場,新北市樹林區俊保路32號旁,2,平面式臨時路外停車場,26877177,小型車計時每小時20元;小型車月租每月2800元;,0~24時,292626.1,2766762,185,0,
90013,新北市,三峽區,NPSA,礁溪行政大樓停車場,三峽區光明路71號,2,立體式多目標附建停車場,86722812,小型車計時每小時20元;小型車月租每月4000元;,0~24時,287992,2757899.5,83,0,
30113,新北市,中和區,NPZH,雙和醫院第一、二醫療大樓停車場,新北市中和區中正路291號B1~B5,2,立體式建築附設停車空間,22432965,小型車計時每小時30元;小型車月租每月4000元;小型車月租每月2000元;機車計次每次10元;,0~24時,299880.4,2764931,708,699,
10140,新北市,板橋區,NPBQ,江翠水岸停一收費停車場,新北市板橋區溪頭公園旁,1,平面式都市計畫停車場,22523745,小型車計時每小時30元;小型車月租每月4200元;,0~24時,297076,2769461,25,0,
10139,新北市,板橋區,NPBQ,江翠水岸停二收費停車場,新北市板橋區長江路2段311巷往環河路第1個十字路口右轉,1,平面式都市計畫停車場,22523745,小型車計時每小時30元;小型車月租每月4200元;,0~24時,297672.3,2769719,43,0,
70001,新北市,樹林區,NPSL,新北市樹林區第一停車場,樹林區保安街20巷底保順街口,1,平面式都市計畫停車場,"02-26851561,26829703",小型車計時每小時20元;小型車月租每月2500元;,0~24時,293220.5,2765270,63,0,
70002,新北市,樹林區,NPSL,新北市樹林區第三停車場,樹林區光明街10號旁空地,1,平面式都市計畫停車場,02-26851561,小型車計時每小時20元;小型車月租每月1200元;,0~24時,291510.5,2764655,16,0,
70006,新北市,樹林區,NPSL,新北市樹林區第八停車場,樹林區復興路390巷20號,1,平面式都市計畫停車場,"02-26851561,0970227788",小型車計時每小時20元;小型車月租每月2300元;,0~24時,291859.5,2764308,50,5,
100016,新北市,淡水區,NPTS,忠佑停車場,淡水區民族路31巷1號B1,2,立體式建築附設停車空間,8809-3037,小型車計時每小時40元;小型車月租每月3000元;,0~24時,296585,2780960,66,0,
40046,新北市,永和區,NPYH,安全停車場,新北市永和區環河東路4段與民樂街39巷交叉口直上堤外道路,2,平面式臨時路外停車場,29213266、29238567,小型車月租每月2500元;小型車月租每月2000元;,0~24時,303424.2,2765949,360,0,
100040,新北市,淡水區,NPTS,淡水新市停車場,新北市淡水區新市1路3段101巷19弄旁,2,平面式臨時路外停車場,,小型車計時每小時60元;小型車計次每次300元;小型車月租每月3000元;,0~24時,294956.6,2786220,140,0,
40022,新北市,永和區,NPYH,宏達經營管理顧問有限公司北城停車場,永和區民權路53號B2~B5,2,立體式建築附設停車空間,29869257,小型車計時每小時50元;小型車月租每月6000元;,0~24時,302476.5,2765495,325,0,
40007,新北市,永和區,NPYH,民權停車場,永和區民權路60號B1-B3,2,立體式建築附設停車空間,8943-3803,小型車計時每小時20元;身障車月租每月4000元;,0~24時,302434.5,2765513,76,0,
140012,新北市,蘆洲區,NPLZ,新北市蘆洲區重陽市場暨社教大樓地下停車場,蘆洲區集賢路245號,2,立體式多目標附建停車場,8286-3440,小型車計時每小時20元;小型車月租每月4000元;小型車計次180元;,0~24時,298581,2775252,145,0,
50105,新北市,新莊區,NPXZ,新莊福美停車場,新北市新莊區福美街和福德一街交叉口,2,平面式臨時路外停車場,22461708,小型車計時每小時30元;小型車月租每月4000元;小型車月租每月3200元;身障車月租每月2000元;,0~24時,296478.8,2772064,85,0,
20004,新北市,三重區,NPSC,重新機械塔停車場,新北市三重區重安街1號,1,立體式-塔臺都市計畫停車場,2979-1067,小型車計時每小時20元;小型車月租每月3300元;小型車月租每月2640元;小型車月租每月1650元;,0~24時,299433,2772321,322,0,
40047,新北市,永和區,NPYH,元順停車場,新北市永和區環河東路2段永福水門進入左轉,2,平面式臨時路外停車場,0917512089、0913512089,小型車月租每月2500元;,0~24時,302912.4,2767055,123,0,
10114,新北市,板橋區,NPBQ,國立臺灣藝術大學停車場,新北市板橋區大觀路一段59號,2,立體式多目標附建停車場,22722181分機1226,小型車計時每小時20元;,0~24時,295192.8,2766511,88,0,
170035,新北市,林口區,NPLK,竹城長崎收費停車場,新北市林口區文化三路2段115巷2號,2,立體式建築附設停車空間,87973666,小型車月租每月5000元;,0~24時,287756.5,2774823,26,26,
30039,新北市,中和區,NPZH,建一路停車場,中和區建一路245號旁停車場,2,平面式臨時路外停車場,2991-7978,小型車計時每小時100元;小型車月租每月6000元;,0~24時,299295,2765555.5,29,0,
170036,新北市,林口區,NPLK,九樹社區停車場,新北市林口區公園路120-1號,2,立體式建築附設停車空間,26068780,小型車月租每月5000元;,0~24時,287333,2773695,46,0,
50104,新北市,新莊區,NPXZ,頭成停車場,新北市新莊區思原路128巷與頭城街交叉口50公尺處,2,平面式臨時路外停車場,919218244,小型車計時每小時20元;小型車月租每月2000元;,0~24時,296539.2,2771095,44,0,
20061,新北市,三重區,NPSC,忠孝碼頭停車場,新北市三重區忠孝橋下高灘地臨時停車場/三重區環河南路與大同南路交叉口附近,2,平面式臨時路外停車場,2971-0770,小型車計時每小時20元;小型車月租每月4000元;,0~24時,300374.5,2772090,76,0,
20018,新北市,三重區,NPSC,淡水河畔停車場,三重區環河北路堤外道中山高速公路下之高灘地,2,平面式臨時路外停車場,29710770,小型車計時每小時20元;小型車月租每月4000元;大型車計時每小時40元;大型車月租每月8000元;,0~24時,300691.5,2774563,674,300,
280010,新北市,萬里區,NPWA,野柳海洋世界停車場,新北市萬里區野柳里港東路167-3號,2,平面式臨時路外停車場,24921111,小型車計時每小時20元;小型車計次每次100元;,0~24時,319644.3,2788592,149,0,
40001,新北市,永和區,NPYH,永和仁愛公園地下停車場,永和區仁愛路244-1號B1、B2,1,立體式多目標附建停車場,22316406,小型車計時每小時30元;小型車月租每月4000元;,0~24時,301125.5,2767094.5,645,0,
170037,新北市,林口區,NPLK,圓舞曲停車場,新北市林口區文化北路1段299巷16號,2,立體式建築附設停車空間,26097811,小型車月租每月5000元;機車月租美月2500元;,0~24時,286272.3,2773955,23,23,
20073,新北市,三重區,NPSC,永福國小地下停車場,三重區永福街66號地下1至地下2層,1,立體式建築附設停車空間,8283-9364,小型車計時每小時20元;小型車計時每小時30元;小型車月租每月4000元;身障車月租每月2000元;,0~24時,298389.5,2774443.5,210,0,
150023,新北市,五股區,NPWG,臻美大樓停車場,新北市五股區新五路2段373號B1,2,立體式建築附設停車空間,23083788,小型車月租每月6000元;機車月租每月1000元;,0~24時,294788.5,2775649,27,27,
170032,新北市,林口區,NPLK,台灣聯通昕境廣場停車場,昕北市林口區文化三路1段402巷2號,2,立體式-機械建築附設停車空間,25235000,小型車計時每小時60元;小型車月租每月6000元;,0~24時,287213.2,2773977,117,0,
130052,新北市,土城區,NPTC,土城中一停車場,新北市土城區中華路一段50號旁空地,2,平面式臨時路外停車場,2523-5000,小型車計時每小時60元;小型車月租每月5000元;,0~24時,294997.5,2764616,36,0,
110036,新北市,汐止區,NPXI,國泰汐止場停車場,汐止區建成路59巷2號B2至B4,2,立體式建築附設停車空間,2523-5000,小型車計時每小時40元;小型車月租每月4000元;,0~24時,316922.5,2774242,366,0,
20087,新北市,三重區,NPSC,介壽場停車場,三重區龍門路6-1號,2,平面式建築附設停車空間,2523-5000,;,0~24時,299915.298,2773804.463,6,0,
40028,新北市,永和區,NPYH,台灣聯通永一場,新北市永和區永和路二段116號B1,2,立體式建築附設停車空間,2523-5000,小型車計時每小時80元;小型車月租每月8000元;,0~24時,302000.5,2767213,19,0,
50084,新北市,新莊區,NPXZ,新莊中正停車場,新北市新莊區中正路620號,2,平面式臨時路外停車場,2523-5000,小型車計時每小時60元;小型車月租每月8000元;機車計時每小時10元;,0~24時,292655.1,2769094,113,55,
140023,新北市,蘆洲區,NPLZ,台灣聯通徐匯廣場停車場,新北市蘆洲區中山一路6、8號(代表號)地下3至6層,2,立體式建築附設停車空間,2523-5000,小型車計時每小時100元;小型車月租每月8000元;,0~24時,298464.4,2774785,127,0,
10112,新北市,板橋區,NPBQ,江子翠停車場,新北市板橋區縣民大道三段155號旁,2,平面式臨時路外停車場,2523-5000,小型車計時每小時60元;小型車月租每月5000元;,0~24時,298307.1,2768529,61,0,
10120,新北市,板橋區,NPBQ,台灣聯通府中停車場,新北市板橋區中山路一段104號B1,2,立體式建築附設停車空間,2523-5000,小型車計時每小時60元;小型車月租每月7000元;,0~24時,296692.7,2767019,12,0,
20112,新北市,三重區,NPSC,美麗人生停車場,新北市三重區光復路1段45號B1、B2,2,立體式建築附設停車空間,85116666#100,小型車計時每小時100元;機車計次每次100元;小型車計次每次30元;機車計次每次30元;,0~24時,297638.5,2771225,67,67,
10141,新北市,新店區,NPXD,宏達經營管理顧問有限公司安和停車場,新北市新店區安和路2段141號旁空地,2,平面式臨時路外停車場,29869257,小型車計時每小時40元;小型車月租每月5000元;,0~24時,302426.8,2762764,116,0,
30008,新北市,中和區,NPZH,中和區公有民享市場地下停車場,新北市中和區民享街37號B1,1,立體式多目標附建停車場,2221-0545,小型車計時每小時20元;小型車月租每月4000元;身障車月租每月2000元;機車計次每次10元;機車月租每月300元;身障機車月租每月150元;,0~24時,297872.5,2766258,55,12,
30114,新北市,中和區,NPZH,便利停車場連城站,新北市中和區連城路190之8號旁空地,2,平面式臨時路外停車場,22438300,小型車計時每小時40元;小型車月租每月3500元;小型車計次每次190元;,0~24時,269423.7,2765549,117,0,
40029,新北市,永和區,NPYH,北城玫瑰停車場,新北市永和區民生路46巷56號B2,2,立體式建築附設停車空間,2945-5131,小型車計時每小時50元;,0~24時,302572,2765492.5,169,0,
50106,新北市,新莊區,NPXZ,新莊副都心停車場,新北市新莊區富貴路與麗水路交叉口,2,平面式臨時路外停車場,22461708,小型車計時每小時30元;小型車月租每月4000元;,0~24時,295572.6,2772195,62,0,
40048,新北市,永和區,NPYH,振順停車場,新北市永和區環河西路1段中正水門進入向左轉,2,平面式臨時路外停車場,921849746,小型車月租每月2500元;,0~24時,301994.2,2767959,75,0,
140021,新北市,蘆洲區,NPLZ,蘆洲國小地下停車場,蘆洲區中正路100號B1~B3,1,立體式多目標附建停車場,8285-8495,小型車計時每小時30元;小型車月租每月3500元;,0~24時,297404.5,2775184.5,259,0,
100041,新北市,淡水區,NPTS,Times 寶雅淡水中山北路店停車場,新北市淡水區中山北路2段96、98號,2,平面式建築附設停車空間,800888924,小型車計時每小時80元;小型車月租每月8000元;,0~24時,294800,2786233,12,0,
20049,新北市,三重區,NPSC,湯城三期停車場,新北市三重區重新路5段609巷及中興北街交叉口,2,平面式臨時路外停車場,29990973,小型車計時每小時30元;小型車月租每月3000元;機車計次每次30元;機車月租每月500元;,0~24時,297352.5,2770958.5,439,1223,
30116,新北市,中和區,NPZH,興南國小收費停車場,新北市中和區興南路1段135巷24號B1,2,立體式多目標附建停車場,29422349#830、832,;,24小時,301456.3,2764453,35,0,
10042,新北市,板橋區,NPBQ,ViViPARK藝文中心停車場,新北市板橋區莊敬路62號,2,平面式建築附設停車空間,978998140,小型車計時每小時30元;小型車月租每月4000元;,0~24時,297652.5,2768767.5,69,0,
40049,新北市,永和區,NPYH,河堤停車 場,新北市永和區中正橋北往南下堤外匝道右側,2,平面式臨時路外停車場,29215989,小型車月租每月3000元;,0~24時,301923.7,2767930,200,0,
100030,新北市,淡水區,NPTS,新北市淡水區淡水國民小學停車場,新北市淡水區中山路160號,2,平面式多目標附建停車場,22526381,小型車計時每小時40元;,0~24時,294472.4,2784989,20,0,
60081,新北市,新店區,NPXD,白金花園收費停車場,新北市新店區安興路77號,2,立體式建築附設停車空間,86669911,小型車計時每小時30元;,0~24時,302055.1,2763145,98,0,
140032,新北市,蘆洲區,NPLZ,嘟嘟房蘆洲中山站,新北市蘆洲區中山一路281巷口,2,平面式臨時路外停車場,26550818,小型車計時每小時60元;小型車月租每月6000元;,0~24時,297629.8,2774691,7,0,
80027,新北市,鶯歌區,NPYG,銘鎮停車收費停車場,新北市鶯歌區建國路12號對面空地,2,平面式臨時路外停車場,979589756,小型車計時每小時30元;小型車月租每月4000元;小型車計次每次150元;,0~24時,285973.8,2760986,78,0,
100032,新北市,淡水區,NPTS,淡水文化機車立體停車場,新北市淡水區文化路57號,1,立體式多目標附建停車場,922712610,機車計次每次20元;機車月租每月240元;機車計次每次30元;機車月租每月360元;,0~24時,294160.2,2785000,0,393,
60001,新北市,新店區,NPXD,大豐公有地下停車場,新北市新店區民族路109號,1,立體式多目標附建停車場,29117007,小型車計時每小時30元;小型車月租每月4000元;機車計次每次10元;機車月租每月300元;,0~24時,304372,2763359.5,198,27,
30010,新北市,中和區,NPZH,中和區莊敬停車場,新北市中和區莊敬路30號,1,平面式臨時路外停車場,24551299,小型車計時每小時30元;小型車月租每月4000元;,0~24時,300577,2766410.5,58,0,
130060,新北市,土城區,NPTC,土城頂埔平面停車場,新北市土城區中央路4段203號旁空地(頂埔國小旁),2,平面式臨時路外停車場,27888751,小型車計時每小時30元;小型車月租每月6000元;身障車月租每月3000元;,0~24時,291748.4,2760852,183,0,
10096,新北市,板橋區,NPBQ,Times板橋金門街停車場,新北市板橋區金門街306-2號對面,2,平面式臨時路外停車場,800888924,小型車計時每小時80元;小型車月租每月8000元;,0~24時,293286.9,2764212,17,0,
50087,新北市,新莊區,NPXZ,吉拾停車場新莊中正場,新北市新莊區中正路1號B1~B3,2,立體式建築附設停車空間,8228-0188,小型車計時每小時100元;機車計時每小時50元;,0~24時,296897.8,2770446,641,499,
10142,新北市,林口區,NPLK,丞石淳收費停車場,新北市林口區文化北路1段526巷13號,2,立體式建築附設停車空間,27713778,小型車計時每小時50元;小型車月租每月6000元;,09~18時,287139.5,2774561,17,0,
20115,新北市,三重區,NPSC,水岸誠品停車場,新北市三重區河邊北街168號B1~B3,2,立體式建築附設停車空間,29784978,小型車計時每小時50元;機車計次每次50元;,0~24時,300735.5,2773999,30,30,
30035,新北市,中和區,NPZH,興南停車場,中和區景新街410巷24號4至7樓頂層,2,立體式建築附設停車空間,2941-3947,小型車計時每小時40元;小型車月租每月5000元;,0~24時,300978,2764199.5,205,0,
170038,新北市,林口區,NPLK,禮御停車場,新北市林口區吉祥路176號,2,立體式建築附設停車空間,86019453,小型車計時每小時200元;,08~15時,287936.3,2774798,26,26,
130056,新北市,土城區,NPTC,新北市土城區莒光四村平面停車場,新北市土城區中央路1段189巷口南側,1,平面式臨時路外停車場,2542-0001,小型車計時每小時20元;小型車月租每月4000元;小型車月租每月3200元;小型車月租每月2000元;機車計次每次10元;機車月租每月120元;,0~24時,295071.9,2764421,334,30,
110044,新北市,汐止區,NPXI,台灣科學園區收費停車場,新北市汐止區大同路一段237號B1,2,立體式建築附設停車空間,26902058分機31,小型車計時每小時20元;,0~24時,314160.4,2772486,216,0,
50109,新北市,新莊區,NPXZ,中原二平面停車場,新北市新莊區中原路237號對面空地,2,平面式臨時路外停車場,27888751,小型車計時每小時30元;小型車月租每月4000元;,0~24時,295357.5,2771886,11,0,
20020,新北市,三重區,NPSC,新北市三重區環河快速高架橋下平面停車場,新北市三重區河邊北街70號對面，位於環河北路近開元公園至環河北路128巷,1,平面式多目標附建停車場,29746496,小型車計時每小時20元;小型車計時每小時30元;小型車月租每月3500元;機車計次每次10元;,0~24時,300868,2773590.5,128,268,
20011,新北市,三重區,NPSC,新北市三重區中山高架橋下(中山段)停車場,新北市三重區中山高架橋下方橋墩編號P35至P51,1,平面式多目標附建停車場,22504586,小型車計時每小時30元;小型車月租每月3000元;機車計次每次10元;機車月租每月100元;,0~24時,298728,2772678.5,145,50,
30115,新北市,中和區,NPZH,永新收費停車場,新北市中和區莒光路120巷與84巷口,2,平面式臨時路外停車場,27560709,小型車計時每小時30元;小型車月租每月4000元;,0~24時,297581.2,2766124,40,0,
20037,新北市,三重區,NPSC,三重重陽站停車場,三重區重陽路一段26巷10號旁,2,平面式臨時路外停車場,2655-0818,小型車計時每小時50元;小型車月租每月9600元;,0~24時,299007.5,2772181,58,0,
130010,新北市,土城區,NPTC,捷運永寧站轉乘停車場,新北市土城區中央路3段105號,2,平面式多目標附建停車場,2550-5600#3218,小型車計時每小時20元;小型車計時每小時10元;小型車月租每月2500元;小型車月租每月1500元;機車計次每次10元;機車月租每月150元;,0~24時,294012,2762136,202,1137,
130011,新北市,土城區,NPTC,捷運海山站轉乘停車場,新北市土城區海山路39號,2,立體式多目標附建停車場,2550-5600#3218,小型車計時每小時30元;小型車計時每小時20元;小型車月租每月3500元;機車計次每次20元;機車月租每月300元;,0~24時,295344.538,2764411,63,102,
130059,新北市,土城區,NPTC,捷運頂埔站轉乘停車場,新北市土城區中央路4段51-6號,2,立體式建築附設停車空間,2550-5600#3218,小型車計時每小時20元;小型車計時每小時10元;小型車月租每月3000元;機車計次每次20元;機車月租每月300元;,0~24時,292352,2761368,77,298,
10116,新北市,板橋區,NPBQ,捷運府中站轉乘停車場,新北市板橋區縣民大道一段193號,2,平面式多目標附建停車場,25505600分機3218,機車計次每次20元;機車計次每次30元;機車月租每月300元;,0~24時,296301.3,2766756,0,575,
10044,新北市,板橋區,NPBQ,捷運江子翠轉乘停車場,新北市板橋區文化路二段367號,1,平面式多目標附建停車場,2550-5600#3218,小型車月租每月3500元;,0~24時,297740.5,2769296.5,26,0,
30026,新北市,中和區,NPZH,捷運南勢角站轉乘停車場,新北市中和區捷運路6號,2,立體式多目標附建停車場,2550-5600#3218,小型車計時每小時30元;小型車計時每小時40元;小型車計時每小時10元;小型車月租每月4000元;小型車月租每月2000元;,0~24時,301482,2764750,340,0,
60007,新北市,新店區,NPXD,捷運新店站轉乘停車場,新北市新店區北宜路1段2號B2~B4,2,立體式多目標附建停車場,2550-5600#3218,小型車計時每小時30元;小型車計時每小時40元;小型車計時每小時30元;小型車計時每小時20元;小型車月租每月3500元;小型車月租每月1500元;機車計次每次30元;機車月租每月300元;,0~24時,304291,2761187.5,209,393,
140015,新北市,蘆洲區,NPLZ,捷運蘆洲站轉乘停車場,新北市蘆洲區三民路386號,2,平面式多目標附建停車場,2550-5600#3218,機車計次每次20元;機車月租每月300元;小型車計時每小時20元;,0~24時,296975,2775953,2,360,
60027,新北市,新店區,NPXD,中興平面停車場,新店區中興路三段3號對面空地,1,平面式臨時路外停車場,8914-5594,;,0~24時,305193.5,2763362.5,480,0,
50108,新北市,新莊區,NPXZ,中原一平面停車場,新北市新莊區中原路317號對面空地,2,平面式臨時路外停車場,27888751,小型車計時每小時30元;小型車月租每月4000元;,0~24時,295081.3,2771885,45,0,
30025,新北市,中和區,NPZH,中和區枋寮停車場,新北市中和區中和路及泰和街口,1,平面式臨時路外停車場,24551299,小型車計時每小時30元;小型車月租每月4000元;,0~24時,300522.1648,2766004.498,40,0,
10143,新北市,新莊區,NPXZ,Times 新莊中原路3停車場,新北市新莊區中原路/福壽街與昌平街間,2,平面式臨時路外停車場,800888924,小型車計時每小時80元;小型車月租每月8000元;,0~24時,296090.9,2771953,126,0,
70015,新北市,樹林區,NPSL,聯永物業股份有限公司臺北大學停一站停車場,樹林區大義路與學城路口,1,平面式都市計畫停車場,975024268,小型車計時每小時20元;小型車計時每小時30元;小型車月租每月1050元;機車計次每次10元;機車月租每月300元;,0~24時,288244.7886,2759777.756,76,20,
70004,新北市,樹林區,NPSL,樹林區第六停車場,新北市樹林區潭興街文林國小大門口旁,1,平面式都市計畫停車場,975024268,小型車計時每小時20元;小型車計時每小時30元;小型車月租每月2600元;身障車月租每月2000元;機車計時每次10元;機車月租每月300元;,0~24時,292828.5,2765549,42,10,
70012,新北市,樹林區,NPSL,聯永物業股份有限公司汐止一站,樹林區復興路202號1~2樓,1,立體式都市計畫停車場,"22465052,2681-9670",小型車計時每小時20元;小型車計時每小時30元;小型車月租每月3400元;小型車月租每月2500元;身障車月租每月2000元;,0~24時,292754,2764752.5,50,10,
140002,新北市,蘆洲區,NPLZ,蘆洲鷺江停車場,蘆洲區民權路26號,1,立體式都市計畫停車場,"8286-6512, 8286-0678",小型車計時每小時20元;小型車計時每小時30元;小型車月租每月3200元;小型車月租每月2500元;身障車月租每月2000元;機車月租每月2000元;,0~24時,298114.5,2775385,456,44,
50009,新北市,新莊區,NPXZ,新莊文化藝術中心地下停車場,新莊區中平路133號B1,2,立體式多目標附建停車場,8992-2549,小型車計時每小時20元;小型車月租每月3000元;,0~24時,294980.9428,2771127.217,65,0,
140033,新北市,蘆洲區,NPLZ,新峰向社區收費停車場,新北市蘆洲區長興路166號,2,立體式建築附設停車空間,82836692,小型車月租每月4800元;,0~24時,296550.3,2775366,15,0,
20114,新北市,三重區,NPSC,翔譽A+停車場,新北市三重區成功路100號B1、B2,2,立體式建築附設停車空間,29731100,小型車計時每小時30元;小型車月租每月4000元;,0~24時,299212.1,2771554,21,0,
130061,新北市,土城區,NPTC,天京停車場,新北市土城區明德路2段62號B2,2,立體式建築附設停車空間,22709730,小型車計時每小時20元;小型車計時每小時30元;小型車月租每月3500元;,0~24時,295270.7,2763977,93,0,
170009,新北市,林口區,NPLK,林口區停三停車場,林口區中山路99號,1,立體式都市計畫停車場,2601-0499,小型車計時每小時20元;小型車計時每小時10元;小型車計時每小時30元;小型車月租每月3500元;,0~24時,289259,2774553.5,141,0,
150010,新北市,五股區,NPWG,五股區工商路立體停車場,五股區工商路3號,1,立體式都市計畫停車場,8295-5708,小型車計時每小時20元;小型車計時每小時10元;小型車計時每小時30元;小型車月租每月2400元;機車計次每次10元;,0~24時,294322.5,2775063.5,308,85,
10018,新北市,板橋區,NPBQ,板橋區府中立體停車場,板橋區西門街59號,1,立體式-塔臺都市計畫停車場,"25628211,2969-8466",小型車計時每小時20元;小型車計時每小時30元;小型車月租每月3000元;,0~24時,295844,2767052,158,0,
140034,新北市,蘆洲區,NPLZ,重陽停車場,新北市蘆洲區重陽街46號旁停車場,2,平面式臨時路外停車場,25235000,小型車計時每小時60元;小型車月租每月5000元;,0~24時,298592.4,2775007,29,0,
20053,新北市,三重區,NPSC,台灣家樂福股份有限公司重新分公司停車場,三重區重新路五段654號,2,立體式建築附設停車空間,2999-5000#872,小型車計時每小時50元;機車計時每小時10元;,0~24時,297142.5,2770632.5,502,399,
50110,新北市,新莊區,NPXZ,重新橋停車場,新北市新莊區福美街255號旁,2,平面式臨時路外停車場,800888924,小型車計時每小時80元;小型車月租每月8000元;,0~24時,296487.3,2772106,13,0,
170039,新北市,林口區,NPLK,美河市商場暨里民停車場,新北市林口區文化三路1段356號,2,立體式建築附設停車空間,26068616,小型車計時每小時100元;小型車月租每月5000元;機車計時每次40元;機車月租每月1000元;,0~24時,286767,2773698,2000,1390,
60003,新北市,新店區,NPXD,新店北新公有停車場,新北市新店區北新路一段92號B1及B2,1,立體式多目標附建停車場,2231-6406,小型車計時每小時30元;小型車月租每月4000元;,0~24時,304815,2762435.5,365,62,
50072,新北市,新莊區,NPXZ,新莊國民運動中心停車場,新莊區立德里公園路11號,2,立體式多目標附建停車場,7728-8898#224,小型車計時每小時20元;小型車月租每月3600元;小型車月租每月2880元;身障車月租每月1800元;機車免費免費;,0~24時,295152.1,2770264,344,180,
10050,新北市,板橋區,NPBQ,新北市立江翠國中學生活動中心地下停車場,板橋區松江街63號B1,2,立體式多目標附建停車場,981924598,小型車計時每小時20元;小型車月租每月4000元;,0~24時,297303.5,2769047,49,0,
20065,新北市,三重區,NPSC,疏洪中山棒球場區停車場,新北市三重區疏洪十二路及東西向快速公路八里新店線交叉口,2,平面式臨時路外停車場,29748453,小型車計時每小時20元;小型車計時每小時10元;小型車計次每次100元;小型車計次每次40元;小型車月租每月1800元;,0~24時,297739,2772758.5,109,306,
60082,新北市,新店區,NPXD,新店區新店高中地下停車場,新店區中央路93號B1、B2,1,,29189757,小型車計時每小時30元;小型車月租每月4000元;機車計次每次10元;機車月租每月300元;,0~24時,303931.7,2763023,300,49,
20082,新北市,五股區,NPWG,陽光運河區停車場,新北市五股區疏洪一路與疏洪八路交叉口,1,平面式臨時路外停車場,27057716,;,0~24時,25.07132,121.458828,0,0,
140035,新北市,蘆洲區,NPLZ,Times 蘆洲九芎街第2停車場,新北市蘆洲區九芎街90巷5號旁,2,平面式臨時路外停車場,800888924,小型車計時每小時80元;小型車月租每月8000元;,0~24時,296906.6,2774830,13,0,
150009,新北市,五股區,NPWG,疏洪遙控賽車場區,新北市五股區疏洪一路及疏洪十路交叉口,2,平面式臨時路外停車場,0903-036305,小型車計時每小時20元;小型車計時每小時10元;小型車計次每次100元;小型車計次每次40元;小型車月租每月1800元;,0~24時,297008.5,2773451.5,63,236,
150018,新北市,五股區,NPWG,微風運河二停車場,新北市五股區疏洪一路土地公廟釣魚池旁,1,平面式臨時路外停車場,0927-578175,小型車計時每小時20元;小型車計時每小時10元;小型車計次每次40元;小型車計次每次100元;小型車月租每月1800元;,0~24時,295728,2775015,9,57,
150019,新北市,五股區,NPWG,微風運河3停車場,新北市五股區疏洪一路近微風運河南側,2,平面式臨時路外停車場,0927-578175,小型車計時每小時20元;小型車計時每小時10元;小型車月租每月1800元;,0~24時,295661.2,2775228,76,202,
150020,新北市,五股區,NPWG,五股溼地區停車場,新北市五股區更寮段洲子尾小段26-4地號(成蘆橋下近荒野協會辦公室),2,平面式臨時路外停車場,0927-578175,小型車計時每小時10元;小型車計時每小時20元;小型車月租每月1800元;,0~24時,296108.3,2776716,85,194,
60076,新北市,新店區,NPXD,宏達經營管理顧問有限公司安坑停車場,新北市新店區安和路2段141號B1、1樓,2,立體式建築附設停車空間,29869257,小型車計時每小時30元;小型車月租每月5000元;,0~24時,302419.5,2762947,81,0,
10004,新北市,板橋區,NPBQ,民生花市停車場,民生路2段200及207號對面,1,平面式都市計畫停車場,02-22559110,小型車計時每小時30元;小型車月租每月3500元;小型車月租每月2800元;身障車月租每月2000元;,0~24時,297335,2768249,109,0,
90012,新北市,三峽區,NPSA,臺北大學運動場地下停車場,新北市三峽區大學路151號B2、B3,1,立體式多目標附建停車場,3501-2159、聯絡人:陳麗秋0978-751385,機車免費免費;小型車計時每小時10元;小型車月租每月1200元;,0~24時,287684,2759670,975,315,
50112,新北市,新莊區,NPXZ,中原三平面停車場,新北市新莊區榮華路2段中信國小對面空地,2,平面式臨時路外停車場,27888751,小型車計時每小時30元;小型車月租每月4000元;,0~24時,295333.5,2772025,24,0,
50111,新北市,新莊區,NPXZ,中原四平面停車場,新北市新莊區中富路17號旁空地,2,平面式臨時路外停車場,27888751,小型車計時每小時100元;小型車月租每月4000元;,0~24時,295373.7,2772031,25,0,
60083,新北市,新店區,NPXD,里念停車場,新北市新店區安業街151巷旁空地,2,平面式臨時路外停車場,988387333,大型車計次每次500元;大型車月租每月5500元;,0~24時,302632.7,2763033,0,0,
230017,新北市,八里區,NPBL,愛馬屋八里停車場,新北市八里區中山路一段109號B1,2,立體式建築附設停車空間,23457749,小型車計時每小時40元;小型車月租每月3000元;,0~24時,291943.9,2783592,27,0,
10121,新北市,板橋區,NPBQ,百揚大樓 MEGA TOWEWR 停車場,新北市板橋區新站路18號B2~B4、4~9F,2,立體式-機械建築附設停車空間,7705-4168,小型車計時每小時60元;,0~24時,297110.8,2767353,712,0,
10046,新北市,板橋區,NPBQ,板橋國中地下停車場,板橋區中正路437號B1,1,立體式多目標附建停車場,2965-6235,小型車計時每小時20元;小型車計時每小時30元;小型車計次每次200元;小型車月租每月3800元;,0~24時,295825,2768506,100,0,
150017,新北市,五股區,NPWG,追風廣場區停車場,新北市五股區疏洪一路，追風直排輪競速場旁,2,平面式臨時路外停車場,0927-578175,小型車計時每小時20元;小型車計時每小時10元;小型車計次每次40元;小型車計次每次100元;小型車月租每月1800元;,0~24時,295993.7,2774692,85,0,
150022,新北市,五股區,NPWG,集福里停車場,新北市五股區成泰路22巷29之6號段面高灘地河濱公園,2,平面式臨時路外停車場,0927-578175,小型車計時每小時20元;小型車計時每小時10元;小型車計次每次150元;小型車月租每月1800元;,0~24時,295976.7,2777881,18,0,
30027,新北市,中和區,NPZH,中安停車場,中和區中安街85號,2,立體式-機械多目標附建停車場,2232-9288,小型車月租每月4500元;小型車計時每小時30元;,0~24時,301715.5,2766030,500,0,
20067,新北市,三重區,NPSC,疏洪籃球場區停車場,新北市三重區疏洪十二路及東西向快速公路八里新店線交叉口,2,平面式臨時路外停車場,0927-578106,大型車計時每小時40元;大型車計時每小時20元;大型車月租每月4000元;小型車計時每小時20元;小型車計時每小時10元;小型車計次每次40元;小型車計次每次100元;小型車月租每月1800元;,0~24時,297661.5,2772803,59,225,
10016,新北市,板橋區,NPBQ,溪洲公園平面停車場,新北市板橋區滿平街84巷102號對面,1,平面式臨時路外停車場,26759724,小型車計時每小時20元;小型車計時每小時30元;小型車月租每月2500元;,0~24時,293188.5,2764263,60,0,
10021,新北市,板橋區,NPBQ,昌德停車場,新北市板橋區中正路435號,1,平面式臨時路外停車場,26759724,大型車計時每小時40元;大型車計時每小時60元;小型車計時每小時20元;小型車計時每小時30元;大型車月租每月3600元;小型車月租每月2400元;,0~24時,295640.5,2768539,21,5,
10015,新北市,板橋區,NPBQ,崑崙公園平面停車場,板橋區大觀路3段160巷31弄5號對面,1,平面式臨時路外停車場,2682-5469,小型車計時每小時20元;小型車月租每月2500元;,0~24時,293340,2765057.5,56,5,
10108,新北市,板橋區,NPBQ,浮洲橋下平面停車場,板橋區大觀路3段8之1號後方,1,平面式臨時路外停車場,2682-5469,小型車計時每小時20元;小型車月租每月2000元;,0~24時,293886.1,2765341,30,0,
140036,新北市,蘆洲區,NPLZ,嘟嘟房蘆洲2站停車場,新北市蘆洲區三民路505號,2,平面式臨時路外停車場,26550818,小型車計時每次50元;小型車月租每月5000元;,0~24時,296757.1,2775985,29,0,
130019,新北市,土城區,NPTC,宏達經營管理顧問有限公司頂埔停車場,土城區中洲路28巷30號,2,立體式建築附設停車空間,913725070,小型車計時每小時20元;小型車月租每月3000元;,0~24時,291935.5,2761193,49,0,
20021,新北市,三重區,NPSC,新北市三重區行政大樓附設停車場,新北市三重區新北大道一段11號旁,1,立體式-機械建築附設停車空間,8243-1866,小型車計時每小時20元;小型車月租每月4000元;,0~24時,299309.5,2772589.5,79,0,
110050,新北市,汐止區,NPXI,麟旺收費停車場,新北市汐止區長安路17號,2,平面式多目標附建停車場,8648-4747,小型車計時每小時30元;小型車計時每小時20元;小型車月租每月2500元;機車計次每次20元;,0~24時,317400.4,2774601,227,140,
10116,新北市,板橋區,NPBQ,捷運府中站轉乘停車場,新北市板橋區縣民大道一段193號,2,平面式多目標附建停車場,25505600分機3218,機車計次每次20元;機車計次每次30元;機車月租每月300元;,0~24時,296301.3,2766756,0,575,
130010,新北市,土城區,NPTC,捷運永寧站轉乘停車場,新北市土城區中央路3段105號,2,平面式多目標附建停車場,22461708,,0~24時,294012,2762136,202,1137,
130059,新北市,土城區,NPTC,捷運頂埔站轉乘停車場,新北市土城區中央路4段51-6號,2,立體式建築附設停車空間,22461708,小型車計時每小時20元;小型車計時每小時10元;小型車月租每月3000元;小型車月租每月1500元;小型車月租每月1200元;機車計次每次20元;機車月租每月300元;,0~24時,292352,2761368,77,298,
130011,新北市,土城區,NPTC,捷運海山站轉乘停車場,新北市土城區海山路39號,2,立體式多目標附建停車場,2550-5600#3218,小型車計時每小時30元;小型車計時每小時20元;小型車月租每月3500元;小型車月租每月1500元;小型車月租每月1200元;機車計次每次20元;機車月租每月300元;,0~24時,295344.538,2764411,63,99,
130009,新北市,土城區,NPTC,土城區青山停車場,土城區青雲路351-1號旁,1,平面式都市計畫停車場,82629430,小型車計時每小時20元;小型車計時每小時30元;小型車月租每月2000元;,0~24時,296357,2763442,57,10,
10082,新北市,板橋區,NPBQ,亞東停車場,新北市板橋區南雅南路2段25號B1、B2,2,立體式多目標附建停車場,02-77388800,小型車計時每小時30元;小型車計時每小時10元;小型車月租每月3000元;機車計次每次30元;,0~24時,295673,2765528,193,1228,
110006,新北市,汐止區,NPXI,汐止區城中平面停車場,新北市汐止區建成路58號對面,1,平面式都市計畫停車場,22526381,小型車計時每小時20元;小型車計時每小時30元;小型車月租每月2000元;機車計次每次10元;機車月租每月200元;,0~24時,316648,2773703.5,84,10,
140013,新北市,蘆洲區,NPLZ,新北市蘆洲區民權平面停車場,新北市蘆洲區民權路6號旁,1,平面式都市計畫停車場,2847-2714,小型車計時每小時20元;小型車計時每小時30元;小型車月租每月2600元;,0~24時,297909,2775338.5,46,0,
20082,新北市,五股區,NPWG,陽光運河區停車場,新北市五股區疏洪一路及疏洪八路交叉口,1,平面式臨時路外停車場,0903-036305,小型車計時每小時20元;小型車計時每小時10元;小型車計次每次40元;小型車計次每次100元;小型車月租每月1800元;,0~24時,25.07132,121.458828,151,0,
20071,新北市,三重區,NPSC,疏洪荷花公園停車場,新北市三重區疏洪十二路及疏洪一路交叉口,2,平面式臨時路外停車場,0927-578106,小型車計時每小時20元;小型車計時每小時10元;小型車計次每次150元;小型車月租每月1800元;,0~24時,297662.5,2773182,285,194,
10031,新北市,板橋區,NPBQ,板橋車站地下停車場,新北市板橋區縣民大道二段7號B2、B3,1,立體式都市計畫停車場,8969-2632,小型車計時每小時40元;小型車計次每次200元;小型車月租每月4000元;機車計時每小時10元;機車計次每次50元;,0~24時,296876.5,2767444,883,256,
50064,新北市,新莊區,NPXZ,新莊體育場區停車場,新莊區中華路一段75號,2,立體式多目標附建停車場,2991-0714,小型車計時每小時20元;小型車月租每月3600元;小型車月租每月3200元;身障車月租每月2000元;,0~24時,0,0,732,0,
10044,新北市,板橋區,NPBQ,捷運江子翠轉乘停車場,新北市板橋區文化路二段367號,1,平面式多目標附建停車場,22461708,小型車月租每月3000元;機車計次每次20元;機車月租每月300元;,0~24時,297740.5,2769296.5,26,126,
110001,新北市,汐止區,NPXI,智興停車場,汐止區忠孝東路1號(3F-9F),1,立體式都市計畫停車場,26903992,小型車計時每小時20元;小型車計時每小時30元;小型車月租每月2800元;身障車月租每月1400元;大型車計時每小時100元;,0~24時,316299,2773047.5,376,0,
10014,新北市,板橋區,NPBQ,民生公園地下停車場,板橋區民生路一段30號,1,立體式多目標附建停車場,2955-6239,小型車計時每小時30元;小型車月租每月3300元;,0~24時,298073.5,2767359,164,0,
10009,新北市,板橋區,NPBQ,民權立體停車場,板橋區民權路89號,1,立體式都市計畫停車場,8969-8326,小型車計時每小時30元;小型車月租每月3300元;,0~24時,296477,2767184,154,0,
90031,新北市,三峽區,NPSA,Times 三峽國際一街停車場,新北市三峽區國際一街66-1號旁,2,平面式臨時路外停車場,800888924,小型車計時每小時80元;小型車月租每月8000元;,0~24時,287586.1,2759442,20,0,
10144,新北市,板橋區,NPBQ,長江停車場,新北市板橋區雙十路3段89號對面空地,2,平面式臨時路外停車場,25235000,小型車計時每小時60元;小型車月租每月5000元;,0~24時,297383,2769549,122,0,
170034,新北市,林口區,NPLK,冠富林六期停車場,新北市林口區仁愛路2段106巷20、22號B1,2,立體式建築附設停車空間,952948186,小型車月租每月3000元;,0~24時,288653.8,2774212,12,0,
50008,新北市,新莊區,NPXZ,新莊區新莊國民中學地下停車場,新北市新莊區景德街138號,1,立體式多目標附建停車場,29956351,小型車計時每小時20元;小型車計時每小時30元;小型車月租每月3500元;機車計次每次10元;機車月租每月300元;,0~24時,295499.5,2769692,277,41,
50003,新北市,新莊區,NPXZ,八德立體停車場,新莊區八德街56號,1,立體式-塔臺都市計畫停車場,2204-1968,小型車計時每小時20元;小型車計次每次150元;小型車月租每月4000元;,0~24時,292904.5,2768356.5,200,0,
50012,新北市,新莊區,NPXZ,中港平面停車場,新莊區中港路與中華路交接口,1,平面式臨時路外停車場,2996-3694,小型車計時每小時20元;,0~24時,295692.5,2770798,18,0,
150016,新北市,五股區,NPWG,微風運河第4區停車場,新北市五股區疏洪一路距離微風運河500公尺處,2,平面式臨時路外停車場,0927-578175,小型車計時每小時20元;小型車計時每小時10元;小型車計次每次40元;小型車計次每次100元;小型車月租每月1800元;,0~24時,295804.6,2776037,88,194,
150015,新北市,五股區,NPWG,微風運河第5區停車場,新北市五股區近成蘆橋距微風運河700公尺處,2,平面式臨時路外停車場,0927-578175,大型車計時每小時40元;大型車計時每小時20元;大型車月租每月4000元;小型車計時每小時20元;小型車計時每小時10元;小型車月租每月1800元;小型車計次每次150元;,0~24時,296060.2,2776619,85,228,
20036,新北市,三重區,NPSC,嘟嘟房三重高中站停車場,新北市三重區五華街與三信路口,1,平面式臨時路外停車場,8287-5433,小型車計時每小時20元;大型車計時每小時40元;小型車月租每月2500元;大型車月租每月6000元;,0~24時,299281.5,2775493,320,47,
130016,新北市,土城區,NPTC,中洲平面停車場,新北市土城區中洲路11號對面空地,1,平面式臨時路外停車場,2788-8751、停車場:2267-7437,小型車計時每小時20元;小型車計時每小時30元;小型車月租每月4000元;身障車月租每月2000元;,0~24時,291833.5,2761204,230,132,
10145,新北市,板橋區,NPBQ,忠孝路停車場,新北市板橋區忠孝路218號旁空地,2,平面式臨時路外停車場,89525096,小型車月租每月3500元;,0~24時,297103.7,2766175,10,0,
20113,新北市,三重區,NPSC,碧華國小地下停車場,新北市三重區五華街160號B1、B2,1,立體式多目標附建停車場,28577844,小型車計時每小時20元;小型車月租每月4000元;機車計次每次10元;機車月租每月300元;,0~24時,299316.8,2775226,256,50,
10053,新北市,板橋區,NPBQ,新北市政府體育處板橋場區第一運動場地下停車場,板橋區漢生東路278號,2,立體式多目標附建停車場,2955-1353,小型車計時每小時20元;小型車月租每月4000元;,0~24時,297428,2767061.5,35,0,
10103,新北市,板橋區,NPBQ,新北市板橋區華翠橋下A、B、G區停車場,新北市板橋區華翠橋下A、B、G區停車場,1,平面式多目標附建停車場,22526381,小型車計時每小時20元;小型車計時每小時30元;小型車月租每月2000元;小型車月租每月2400元;機車計次每次10元;機車月租每月100元;,0~24時,298768.5,2768816,149,31,
60084,新北市,新店區,NPXD,全球科技特區停車場,新北市新店區寶橋路235巷118號,2,平面式建築附設停車空間,89121137,小型車計時每小時50元;,0~24時,305638.7,2764029,7,0,
10097,新北市,板橋區,NPBQ,大漢溪板橋四汴頭越堤道停車場,新北市板橋區四汴頭越堤道外之高灘地,2,平面式臨時路外停車場,82751240,小型車計時每小時20元;小型車月租每月4000元;,0~24時,294767.9,2767573,63,0,
10049,新北市,板橋區,NPBQ,大漢溪板橋浮洲環保公園停車場,新北市板橋區浮洲橋下二側河川高灘地浮洲環保公園,2,平面式臨時路外停車場,82751240,機車免費免費;小型車計時每小時20元;小型車月租每月4000元;,0~24時,294471.5,2765486,503,0,
70027,新北市,樹林區,NPSL,大漢溪樹林鹿角溪人工濕地停車場,新北市樹林區環河路堤外鹿角溪人工濕地旁,2,平面式臨時路外停車場,8686-2064,小型車計時每小時20元;小型車月租每月4000元;,0~24時,291857.3,2762581,155,0,
20092,新北市,三重區,NPSC,大漢溪三重環保公園一區停車場,新北市三重區新莊堤外道高灘地三重環保公園,2,平面式臨時路外停車場,22022354,小型車計時每小時20元;小型車月租每月4000元;,0~24時,297830.2,2770705,83,0,
20091,新北市,三重區,NPSC,大漢溪三重環保公園二區停車場,新北市三重區新莊堤外道高灘地三重環保公園,2,平面式臨時路外停車場,2202-2354,小型車計時每小時20元;小型車月租每月4000元;,0~24時,298031.2,2770800,48,0,
50073,新北市,新莊區,NPXZ,大漢溪新莊西盛停車場,新北市新莊區19號越堤道外高灘地西盛河濱公園,2,平面式臨時路外停車場,22022354,小型車計時每小時20元;小型車月租每月4000元;,0~24時,294468,2768041,162,0,
20016,新北市,三重區,NPSC,歐特儀股份有限公司龍門公園地下停車場,新北市三重區公園街32地號,1,立體式-機械多目標附建停車場,2976-6516,小型車計時每小時20元;小型車月租每月3100元;小型車月租每月2480元;身障車月租每月1550元;機車免費免費;,0~24時,300240.5,2774095,427,20,
30118,新北市,中和區,NPZH,飛躍21科技園區停車場,新北市中和區中山路3段106號,2,平面式建築附設停車空間,22236104,小型車計時每小時200元;小型車計時每小時80元;,0~24時,298110.1,2766551,6,0,
10010,新北市,板橋區,NPBQ,新埔停車場,板橋區英士路199號,1,立體式-塔臺都市計畫停車場,",2258-1641",小型車計時每小時20元;小型車計時每小時30元;小型車月租每月3000元;,0~24時,296237,2768491,280,0,
10001,新北市,板橋區,NPBQ,莊敬立體停車場,新北市板橋區莊敬路2號,1,立體式-塔臺都市計畫停車場,2258-1026,小型車計時每小時20元;小型車計時每小時30元;小型車月租每月3000元;,0~24時,297826,2769021,280,0,
110039,新北市,汐止區,NPXI,正記樟樹停車場,新北市汐止區樟樹一路155巷,2,平面式臨時路外停車場,87721818,小型車月租每月2600元;,0~24時,314739,2773531.5,98,0,
10020,新北市,板橋區,NPBQ,新北市萬板大橋停車場,萬板大橋板橋端至14號橋墩下方空間(不含道路、19號橋墩至20號橋墩間龍翠聯合活動中心、20號橋墩至22號橋墩間新北市溪南計程車司機服務中心),1,立體式-機械多目標附建停車場,2246-1708,小型車計時每小時20元;小型車計時每小時30元;小型車月租每月3000元;,0~24時,298807,2768946.5,389,179,
260005,新北市,貢寮區,NPGL,貢寮澳底公園地下停車場,新北市貢寮區仁愛路43號B1,1,立體式多目標附建停車場,2490-2717,小型車計時每小時20元;小型車計次每次100元;小型車月租每月1000元;小型車月租每月800元;身障車月租每月500元;機車月租每月100元;,0~24時,343394.5,2772052.5,88,22,
90032,新北市,三峽區,NPSA,Times 三峽大智路停車場,新北市三峽區大智路2號旁,2,平面式臨時路外停車場,800888924,小型車計時每小時80元;小型車月租每月8000元;,0~24時,286402.8,2758902,26,0,
10126,新北市,板橋區,NPBQ,亞東醫院停車場,新北市板橋區高爾富路300號B2-B4,2,立體式建築附設停車空間,8967-5872,小型車計時每小時30元;小型車月租每月4000元;,0~24時,295756.3,2765843,398,0,
160013,新北市,泰山區,NPTA,泰山國小停車場,新北市泰山區泰林路2段290號旁空地,2,平面式臨時路外停車場,03-3323986,小型車計時每小時30元;小型車月租每月3000元;,0~24時,293545.5,2772777,38,0,
60016,新北市,新店區,NPXD,新店區廣明停車場,新北市新店區北宜路一段39巷32號旁,1,平面式臨時路外停車場,2913-6387,小型車計時每小時30元;小型車月租每月4000元;,0~24時,304480,2761170,37,0,
120002,新北市,瑞芳區,NPRF,新北市瑞芳區立體停車場,新北市瑞芳區民權街3之1號,1,立體式都市計畫停車場,2542-0001,小型車計時每小時20元;小型車月租每月2500元;身障車月租每月1250元;機車計次每次10元;機車月租每月100元;,0~24時,331584.5,2777995,326,30,
200001,新北市,坪林區,NPPL,新北市坪林區水柳腳立體停車場,新北市坪林區水柳腳34之1號,1,立體式都市計畫停車場,2542-0001(公司),小型車計時每小時20元;小型車月租每月700元;身障車月租每月350元;機車計次每次10元;機車月租每月100元;,0~24時,321739.5,2758821,110,13,
10149,新北市,板橋區,NPBQ,大漢停車場,新北市板橋區民生路3段119號對面,1,立體式多目標附建停車場,22585821,小型車計時每小時30元;小型車月租每月3000元;小型車月租每月2400元;身障車月租每月1500元;機車計次每次20元;機車月租每月400元;,0~24時,297089.8,2768734,323,314,
10146,新北市,板橋區,NPBQ,江翠國中游泳池共構地下停車場,新北市板橋區崧江街63號,1,立體式多目標附建停車場,22461708,小型車計時每小時20元;小型車計時每小時30元;小型車月租每月4000元;身障車月租每月2000元;,0~24時,297282.8,2768934,220,0,
10147,新北市,林口區,NPLK,麗林停車場,新北市林口區公園路59號旁空地,2,平面式臨時路外停車場,25235000,小型車計時每小時60元;小型車月租每月5000元;,0~24時,287136.5,2773518,51,0,
80026,新北市,鶯歌區,NPYG,雷瓦諾收費停車場,新北市鶯歌區國中街157號B1、B2,2,立體式建築附設停車空間,23709366,小型車計時每小時30元;小型車月租每月4000元;機車計時每小時10元;機車月租每月500元;,0~24時,284224.7,2759139,43,43,
80023,新北市,鶯歌區,NPYG,鶯歌國民小學停車場,新北市鶯歌區尖山埔路106號,2,平面式多目標附建停車場,(02)26793861#230,小型車計次每次60元;小型車計次每次100元;小型車月租每月1800元;,08~20時,285058.2,2760522,49,0,
80025,新北市,鶯歌區,NPYG,鶯歌區三號公園(重慶街)平面停車場,新北市鶯歌區重慶街30號旁,1,平面式多目標附建停車場,22995557,小型車計時每小時30元;小型車計時每小時40元;小型車月租每月2400元;,0~24時,285434.9,2760526,112,0,
140037,新北市,蘆洲區,NPLZ,Times 優衣庫蘆洲長榮路店停車場,新北市蘆洲區長榮路253號,2,平面式建築附設停車空間,800888924,小型車計時每小時20元;小型車計時每小時40元;小型車計次每次200元;小型車月租每月8000元;,0~24時,296405.6,2775423,17,0,
10150,新北市,新店區,NPXD,新店安坑停車場,新北市新店區安民街安興路口,2,平面式多目標附建停車場,22523745,小型車計時每小時30元;小型車月租每月4000元;,0~24時,302082.9,2763333,115,0,
230019,新北市,八里區,NPBL,八里碼頭收費停車場,新北市八里區龍米路1段428巷2號,2,平面式臨時路外停車場,22523745,小型車計時每小時20元;小型車月租每月3000元;,0~24時,295504.6,2780673,42,0,
40050,新北市,永和區,NPYH,永和國小平面停車場,新北市永和區秀朗路1段120號,2,平面式建築附設停車空間,29214615#401、402,小型車月租每月2000元;,0~24時,302227.2,2766166,51,0,
110033,新北市,汐止區,NPXI,明峰停車場,新北市汐止區明峰街70號之1旁,2,平面式臨時路外停車場,86934772,小型車計時每小時30元;小型車月租每月2000元;,0~24時,313764.5,2773841.5,76,0,
10148,新北市,淡水區,NPTS,新北市淡水區市民聯合服務中心地下停車場,新北市淡水區中山北路2段375號,2,立體式建築附設停車空間,26221020#7900、7208,小型車計時每小時20元;機車計次每次10元;,週一~週五07~21時、週六07~14時,294691,2786549,47,128,
170040,新北市,林口區,NPLK,林口收費停車場,新北市林口區文化三路1段394巷37-39號旁,2,平面式臨時路外停車場,26082452,小型車計時每小時40元;小型車計時每小時50元;小型車計時每小時15元;,0~24時,287025,2773723,26,0,
60043,新北市,新店區,NPXD,樺泰停車場,新北市新店區安業街231號,2,平面式臨時路外停車場,22128181,小型車月租每月3000元;大型車月租每月6000元;,0~24時,302826,2762803.5,22,0,
130017,新北市,土城區,NPTC,新北市土城區公所行政大樓前廣場停車場,新北市土城區金城路一段101號,2,平面式建築附設停車空間,2273-2000,小型車計時每小時30元;,0~24時,294739,2762778.5,44,0,
80028,新北市,鶯歌區,NPYG,鶯歌工商收費停車場(活動中心地下室),新北市鶯歌區中正三路154號,2,立體式多目標附建停車場,26775040#823,小型車月租每月1500元;小型車月租每月1000元;,0~24時,283838.3,2759122,24,0,
180006,新北市,深坑區,NPSK,帝國深坑平埔停車場,新北市深坑區平埔街22巷8號,2,平面式臨時路外停車場,27229208,小型車計時每小時20元;小型車計時每小時50元;小型車計時每小時10元;小型車月租每月3000元;,0~24時,312140.5,2766061,34,0,
70008,新北市,樹林區,NPSL,樹林體育場露天停車場,樹林區水源街及板橋區溪城路,2,平面式多目標附建停車場,2831-7499,小型車計時每小時20元;小型車月租每月4000元;,0~24時,293176.1957,2763740.878,183,0,
20110,新北市,三重區,NPSC,苡富中興場停車場,新北市三重區成功路63號旁,2,平面式臨時路外停車場,27549374,小型車計時每小時20元;小型車計時每小時30元;小型車計次每次60元;,0~24時,299350,2771525,20,0,
140038,新北市,蘆洲區,NPLZ,蘆洲三民平面停車場,新北市蘆洲區三民路33號旁空地,2,平面式臨時路外停車場,27888751,小型車計時每小時40元;小型車月租每月6000元;身障車月租每月3000元;,0~24時,297934,2775130,82,0,
60085,新北市,新店區,NPXD,親情河濱公園二區平面停車場,新北市新店區環河路100號對面親情公園下方停車場,2,平面式臨時路外停車場,86655033,小型車計時每小時20元;小型車月租每月4000元;,0~24時,304043.2,2762060,100,0,
30119,新北市,中和區,NPZH,秀朗追風園區平面停車場,新北市中和區秀朗橋下,2,平面式臨時路外停車場,29406027,小型車計時每小時20元;小型車月租每月4000元;,0~24時,303313.6,2764860,228,0,
50115,新北市,新莊區,NPXZ,博客燦坤四維場,新北市新莊區龍安路297號B1、1F,2,平面式建築附設停車空間,29488889,小型車計時每小時50元;小型車月租每月4000元;,09~23時,292498.6,2768050,28,0,
100043,新北市,淡水區,NPTS,Times 淡水中山北路二段停車場,新北市淡水區中山北路2段189巷32號對面,2,平面式臨時路外停車場,800888924,小型車計時每小時80元;小型車月租每月8000元;,0~24時,294706.9,2786369,76,0,
60032,新北市,新店區,NPXD,停車易商行民權停車場,新北市新店區民權路31~37號B1,2,立體式建築附設停車空間,89146234,小型車計時每小時40元;小型車計時每小時50元;小型車月租每月6000元;,08:30~22:30,304614.5,2763949.5,46,0,
110035,新北市,汐止區,NPXI,便利停車場遠東地下二樓站停車場,新北市汐止區新台五路一段75-81號B2,2,立體式建築附設停車空間,2698-1295,小型車計時每小時60元;小型車月租每月5500元;,0~24時,315122,2772778.5,450,0,
230004,新北市,八里區,NPBL,左岸公園停車場,新北市八里區觀海大道36號,2,平面式建築附設停車空間,86305160,小型車計時每小時20元;小型車月租每月4000元;,0~24時,293336,2783640,39,0,
20035,新北市,三重區,NPSC,波菲美運動健康世界停車場,新北市三重區三信路1號,2,平面式多目標附建停車場,2587-4869,小型車計次每次50元;小型車計時每小時10元;小型車月租每月3000元;,0~24時,299492,2775604.5,80,0,
170041,新北市,林口區,NPLK,Times 林口文化三路3停車場,新北市林口區文化三路1段385號旁,2,平面式臨時路外停車場,800888924,小型車計時每次80元;小型車月租每月8000元;,0~24時,286885.9,2773943,19,0,
100042,新北市,淡水區,NPTS,金雞母停車場,新北市淡水區北新路184巷60號B1,2,立體式建築附設停車空間,937955872,小型車計時每小時100元;小型車月租每月2500元;,0~24時,295485.3,2785520,15,0,
170004,新北市,林口區,NPLK,林口區停四平面停車場,新北市林口區仁愛路1段與興林路路口,1,平面式都市計畫停車場,26014445,小型車計時每小時20元;小型車月租每月1800元;,0~24時,289350.5,2774344,54,0,
170008,新北市,林口區,NPLK,林口區停五平面停車場,新北市林口區位於中山路星展銀行前,1,平面式都市計畫停車場,26014459,小型車計時每小時20元;小型車月租每月1800元;,0~24時,289718.5,2774499,43,0,
170006,新北市,林口區,NPLK,林口區停六平面停車場,新北市林口區仁愛路一段與粉寮路路口,1,平面式都市計畫停車場,26014520,小型車計次每次60元;小型車月租每月1800元;,0~24時,289834.5,2774260.5,36,0,
170007,新北市,林口區,NPLK,林口區停七平面停車場,新北市林口區仁愛路一段與粉寮路路口,1,平面式都市計畫停車場,24551299,小型車計次每次60元;小型車月租每月1800元;,0~24時,289891,2774258,38,0,
70037,新北市,樹林區,NPSL,樹林國民運動中心停車場,新北市樹林區中正路188-6號,2,立體式-塔臺建築附設停車空間,26819966,小型車計時每小時20元;小型車月租每月4000元;機車免費免費;,06~22時,292676,2766312,86,76,
80001,新北市,鶯歌區,NPYG,鶯歌區建國路停一平面停車場,新北市鶯歌區建國路66號旁,1,平面式都市計畫停車場,2679-3181,大型車月租每月4800元;小型車計時每次30元;小型車月租每月1800元;機車計次每次10元;機車月租每月300元;,0~24時,285847,2760913.5,52,20,
80008,新北市,鶯歌區,NPYG,鶯歌區老街第二平面停車場,新北市鶯歌區尖山埔路295號旁,1,平面式臨時路外停車場,2679-3182,;,0~24時,284672.5,2760193,155,20,
40032,新北市,永和區,NPYH,永利停車場,新北市永和區永利路58號對面空地,2,平面式臨時路外停車場,29869257,小型車計時每小時40元;小型車月租每月6000元;,0~24時,302455.5,2766489,140,0,
10036,新北市,板橋區,NPBQ,特專三臨時平面停車場,新北市板橋區漢生東路64號旁空地,1,平面式臨時路外停車場,2255-5419,小型車計時每小時20元;小型車計時每小時30元;小型車月租每月3000元;機車計次每次10元;機車月租每月150元;大型車計時每小時40元;大型車計時每小時60元;,0~24時,296922,2767636,271,2365,
150011,新北市,五股區,NPWG,五股成州收費停車場,新北市五股區凌雲路1段149巷61號後方空地,1,平面式臨時路外停車場,2274-0068,小型車計時每小時20元;小型車月租每月2000元;機車計次每次10元;機車月租每月100元;,0~24時,295177,2777019,42,5,
130006,新北市,土城區,NPTC,金城立體停車場,新北市土城區金城路二段266號,1,立體式都市計畫停車場,22642389,;,0~24時,296280.5,2764061.5,537,0,
110059,新北市,汐止區,NPXI,台灣聯通汐科停車場,新北市汐止區新台五路1段90~106、110~116號B2,2,立體式建築附設停車空間,2523-5000,小型車計時每小時40元;小型車月租每月6000元;,09:30~22:30,315360.2,2772698,136,0,
170042,新北市,林口區,NPLK,忠孝停車場,新北市林口區忠孝路9號旁空地,2,平面式臨時路外停車場,0921-133-279,小型車計時每小時80元;小型車月租每月8000元;,0~24時,286780.1,2774210,22,0,
60075,新北市,新店區,NPXD,Top大樓地下停車場,新北市新店區寶僑路188號地下停車場,2,立體式建築附設停車空間,8914-5696,小型車計時每小時40元;小型車月租每月4500元;,0~24時,305566.3,2763453,48,0,
110024,新北市,汐止區,NPXI,汐止台泥停車場,汐止區大同路一段310號,2,平面式建築附設停車空間,2641-2100,小型車計時每小時60元;小型車月租每月8000元;小型車月租每月6000元;小型車月租每月3000元;,0~24時,314240,2772365,21,0,
140024,新北市,蘆洲區,NPLZ,侑侑停車場,新北市蘆洲區長興路60號對面,2,平面式臨時路外停車場,928545685,小型車月租每月1500元;,10~22時,296715.7,2775137,17,0,
150024,新北市,五股區,NPWG,Times 五股成泰路停車場,新北市五股區成泰路3段489號對面空地,2,平面式臨時路外停車場,800888924,小型車計時每小時80元;小型車月租每月8000元;,0~24時,295524.9,2776936,20,0,
60053,新北市,新店區,NPXD,稚達停車場,新北市新店區安德街3號旁,2,平面式臨時路外停車場,939787189,;,0~24時,301710,2761723,80,0,
110009,新北市,汐止區,NPXI,汐科站停車場,汐止區大同路二段182號旁,2,平面式多目標附建停車場,939054138,小型車計時每小時40元;小型車月租每月4000元;,0~24時,315997,2773196.5,145,0,
10013,新北市,板橋區,NPBQ,市民廣場地下停車場,新北市板橋區縣民大道二段22號B1-B3,1,立體式都市計畫停車場,29643298,小型車計時每小時30元;小型車月租每月3600元;機車計時每小時10元;機車月租每月200元;,0~24時,296913,2767352,841,1797,
160010,新北市,泰山區,NPTA,Times南亞科技停車場,新北市泰山區南林路115號,2,平面式建築附設停車空間,800888924,小型車計次每次50元;,0~24時,291417,2770649,189,0,
100044,新北市,淡水區,NPTS,鄧公國小假日收費停車場,新北市淡水區學府路99號,2,立體式多目標附建停車場,981666204,,週六、日及國定例假日06~23時,295306.2,2784847,26,0,
110038,新北市,汐止區,NPXI,三多停車管理有限公司,新北市汐止區建成路59巷底,2,平面式臨時路外停車場,86485212,小型車計時每小時25元;小型車月租每月1500元;,0~24時,316829,2774123,164,0,
10022,新北市,板橋區,NPBQ,新北市板橋區華德公園平面停車場,新北市板橋區四川2段路245巷111號旁,1,平面式臨時路外停車場,22526381,小型車計時每小時20元;小型車月租每月2400元;,0~24時,295731,2764990,55,0,
140026,新北市,蘆洲區,NPLZ,Times蘆洲九芎長安停車場,新北市蘆洲區九芎街167巷6號旁,2,平面式臨時路外停車場,800888924,小型車計時每小時80元;小型車月租每月8000元;,0~24時,296883.2,2774560,23,0,
170023,新北市,林口區,NPLK,Times林口仁愛路2停車場,新北市林口區仁愛路1段386巷,2,平面式臨時路外停車場,800888924,,0~24時,289072,2774353.5,19,0,
30074,新北市,中和區,NPZH,壽德停車場,新北市中和區和平路200巷3號,2,平面式臨時路外停車場,29514431,小型車月租每月2500元;,0~24時,297035.5,2765165,63,0,
10151,新北市,板橋區,NPBQ,華江停車場,新北市板橋區長江路3段5-1號後方空地,2,平面式臨時路外停車場,25235000,小型車計時每小時60元;小型車月租每月5000元;,0~24時,297559.3,2769669,171,0,
50118,新北市,新莊區,NPXZ,禾典裕明站,新北市新莊區文藝路與富貴路口空地,2,平面式臨時路外停車場,800888924,小型車計時每小時80元;小型車月租每月8000元;,0~24時,2772118,295051.3,70,0,
60035,新北市,新店區,NPXD,江陵禮停車場,新北市新店區二十張路119號對面空地,2,平面式臨時路外停車場,932182918,小型車月租每月2333元;,0~24時,304101,2763625,17,0,
50116,新北市,新莊區,NPXZ,福美83停車場,新北市新莊區福美街122號對面,2,平面式臨時路外停車場,919218244,小型車計時每小時20元;小型車月租每月2000元;,0~24時,296478.2,2772211,71,0,
20116,新北市,三重區,NPSC,越鑫三重場,新北市三重區光興街85號B1、B2,2,立體式建築附設停車空間,29746981,小型車計時每小時50元;小型車月租每月7000元;,0~24時,300200,2772528,47,0,
70013,新北市,樹林區,NPSL,聯永物業股份有限公司樹林第十三站停車場,新北市樹林區中山路1段文化街口,1,平面式都市計畫停車場,975024268,小型車計時每小時20元;小型車計時每小時30元;小型車月租每月2600元;身障車月租每月2000元;,0~24時,292481,2764371.5,14,0,
50006,新北市,新莊區,NPXZ,新莊區區政立體停車場,新北市新莊區中正路176號後側,2,立體式-機械建築附設停車空間,8423-1866,小型車計時每小時20元;小型車月租每月3000元;,0~24時,295453,2769829,38,0,
50016,新北市,新莊區,NPXZ,新中港立體停車場,新北市新莊區中港路350、352號後側,2,立體式-機械建築附設停車空間,8243-1886,小型車計時每小時20元;小型車月租每月3000元;,0~24時,295613,2770991.5,28,0,
50047,新北市,新莊區,NPXZ,頭前平面停車場,新北市新莊區頭前路、福前街口,2,平面式臨時路外停車場,909776400,小型車計時每小時20元;小型車月租每月3000元;,0~24時,296746,2771697,50,0,
90025,新北市,三峽區,NPSA,三峽公有零售市場所屬停車場,新北市三峽區民生街186號B1、B2,1,立體式多目標附建停車場,2671-1883,小型車計時每小時20元;小型車月租每月2500元;機車免費免費;,0~24時,287445.1,2758638,92,78,
50117,新北市,新莊區,NPXZ,Times 新莊中原昌平停車場,新北市新莊區中原路和昌平街交叉口空地,2,平面式臨時路外停車場,800888924,小型車計時每次80元;小型車月租每月8000元;,0~24時,295858.1,2771888,40,0,
90033,新北市,三峽區,NPSA,Times 三峽大觀路停車場,新北市三峽區大觀路90號旁,2,,800888924,小型車計時每小時80元;小型車月租每月8000元;,0~24時,287754.8,2759933,30,0,
120006,新北市,瑞芳區,NPRF,鼻頭服務區停車場,瑞芳區鼻頭段138地號,2,平面式多目標附建停車場,,機車計次每次20元;大型車計次每次50元;小型車計次每次50元;,0~24時,342022.5,2779822,19,6,
140039,新北市,蘆洲區,NPLZ,時上京宴大樓停車場,新北市蘆洲區長榮路309號地下1樓,2,立體式建築附設停車空間,22832839,"小型車月租每月6000元;機車月租每月1,000元;",0~24時,2775456,296387.1,27,27,
90003,新北市,三峽區,NPSA,新北市三峽區長福平面停車場,三峽區光明路1號,1,平面式都市計畫停車場,22526381,大型車計次每次150元;大型車計次每次180元;小型車計次每次50元;小型車計次每次90元;小型車月租每月1800元;機車計次每次10元;機車月租每月200元;,0~24時,287597.5,2758347,98,20,
110029,新北市,汐止區,NPXI,嘟嘟房汐止茄苳站停車場,新北市汐止區茄苳路12號旁,2,平面式臨時路外停車場,2655-0818,小型車計時每小時60元;小型車月租每月6000元;,0~24時,317300,2773728,36,0,
40051,新北市,永和區,NPYH,永和國光停車場,新北市永和區大新街109號旁,2,平面式臨時路外停車場,29942818,小型車計時每小時30元;大型車月租每月5000元;,0~24時,302328.1,2766803,37,0,
110060,新北市,汐止區,NPXI,汐止區中興收費停車場,新北市汐止區中興路27巷22號旁空地,2,平面式臨時路外停車場,913139191,小型車計時每次60元;小型車月租每月6000元;,0~24時,314012.5,2772649,47,6,
20026,新北市,三重區,NPSC,驛站三重區社教館平面停車場,新北市三重區集美街60號,2,立體式建築附設停車空間,953152338,小型車計時每小時20元;小型車月租每月4000元;,0~24時,299380,2771971.5,34,0,
60087,新北市,新店區,NPXD,新北市新店區民安段臨時平面停車場,新北市新店區安民街78號旁,1,平面式臨時路外停車場,953152338,小型車計時每小時30元;小型車月租每月4000元;機車計次每次10元;機車月租每月300元;,0~24時,302277.6,2762219,40,5,
60086,新北市,新店區,NPXD,新北市新店區安和臨時平面停車場,新北市新店區安民街168巷對面,1,平面式臨時路外停車場,953152338,小型車計時每小時30元;小型車月租每月4000元;機車計次每次10元;機車月租每月300元;,0~24時,302179.1,2762635,36,5,
60088,新北市,新店區,NPXD,新北市新店區吉安臨時平面停車場,新北市新店區安民街之吉安公園對面,1,平面式臨時路外停車場,953152338,小型車計時每小時30元;小型車月租每月4000元;機車計次每次10元;機車月租每月300元;,0~24時,302144.6,2762145,35,5,
110046,新北市,汐止區,NPXI,應安汐止國泰停車場,新北市汐止區建成路160巷63號B1、B2,2,立體式建築附設停車空間,2754-6661,小型車月租每月3000元;,0~24時,316722.9,2774216,43,0,
30117,新北市,中和區,NPZH,元隆捷運雙星停車場,新北市中和區板南路651號B3,2,立體式建築附設停車空間,22231978,小型車計時每小時40元;,0~24時,298861.1,2766783,45,0,
100010,新北市,淡水區,NPTS,捷運淡水站轉乘停車場,新北市淡水區中正路1號,2,立體式多目標附建停車場,2550-5600#3218,小型車計時每小時30元;小型車計時每小時60元;小型車計時每小時20元;小型車月租每月3500元;小型車月租每月1500元;小型車月租每月1400元;機車計次每次20元;機車計次每次30元;機車月租每月300元;,0~24時,294918,2784481.5,553,961,
100009,新北市,淡水區,NPTS,捷運紅樹林站轉乘停車場,新北市淡水區中正東路二段68號,2,立體式多目標附建停車場,2550-5600#3218,小型車計時每小時20元;小型車計時每小時10元;小型車月租每月2500元;小型車月租每月1500元;,0~24時,296266,2782877.5,215,0,
30073,新北市,中和區,NPZH,中和興南夜市停車場,中和區興南路一段23號右邊空地,2,平面式臨時路外停車場,2568-3773,小型車計時每小時100元;小型車月租每月10000元;,0~24時,301616.5,2764854.5,33,0,
50086,新北市,新莊區,NPXZ,Times新莊新泰路,新北市新莊區新泰路122號旁空地,2,平面式臨時路外停車場,800888924,小型車計時每次80元;小型車月租每月8000元;,0~24時,295224.6,2769910,16,0,
20117,新北市,三重區,NPSC,捷運三重停車場,新北市三重區疏洪東路1段捷運路22巷交叉口,2,平面式臨時路外停車場,935154518,小型車計時每小時30元;小型車月租每月4800元;,0~24時,298793.8,2771830,62,0,
20118,新北市,三重區,NPSC,嘟嘟房三重三賢站停車場,新北市三重區三賢街與集英路交叉口,2,平面式臨時路外停車場,26550818,小型車計時每小時60元;小型車月租每月6000元;,0~24時,299034.3,2775492,40,0,
60060,新北市,新店區,NPXD,新店區慈濟醫院第二收費停車場,新店區建國路277號、277-1號B1、B2、B3,2,立體式建築附設停車空間,8219-3246,小型車計時每小時30元;小型車月租每月4800元;,0~24時,304252.5,2764195,220,0,
10040,新北市,板橋區,NPBQ,正隆公園地下停車場,板橋區民生路一段26-1號,1,立體式多目標附建停車場,2951-3569,小型車計時每小時30元;小型車計時每小時20元;小型車月租每月4000元;身障車月租每月2000元;,0~24時,298161,2767203,275,0,
110063,新北市,汐止區,NPXI,新北市永和國民運動中心停車場,新北市汐止區汐科路321號,2,立體式建築附設停車空間,86915691,小型車計時每小時20元;小型車月租每月4000元;,臨停06~23時，月租24小時,316325.1,2773201,100,76,
210001,新北市,三芝區,NPSZ,三芝中山立體停車場,新北市三芝區淡金路一段61號,1,立體式都市計畫停車場,2636-4507,小型車計時每小時10元;小型車計次每次100元;小型車月租每月1200元;,0~24時,300417,2794543,154,0,
210002,新北市,三芝區,NPSZ,三芝中正立體停車場,新北市三芝區中山路二段48-1號,1,立體式都市計畫停車場,2636-4509,小型車計時每小時10元;小型車計次每次100元;小型車月租每月1200元;,0~24時,300706,2794113,261,34,
170002,新北市,林口區,NPLK,林口區停二平面停車場,新北市林口區位於鶴齡活動中心對面,1,平面式都市計畫停車場,26019364,小型車計時每小時10元;小型車計次每次60元;小型車計次每次90元;小型車月租每月1800元;,0~24時,289309.5,2774899,84,20,
130018,新北市,土城區,NPTC,和平停車場,土城區和平路26~28號對面,1,平面式都市計畫停車場,22662194,小型車計時每小時20元;小型車計時每小時30元;小型車月租每月2400元;機車計次每次10元;,0~24時,294804.5,2762835,81,10,
50054,新北市,新莊區,NPXZ,豐年國民小學學生活動中心地下室停車場,新北市新莊區瓊泰路116號,2,立體式多目標附建停車場,22017102*33,小型車月租每月3000元;小型車月租每月2000元;,0~24時,294775,2769314,23,0,
20009,新北市,三重區,NPSC,玫瑰平面停車場,新北市三重區集美街57號對面,1,平面式臨時路外停車場,2974-1874,小型車計時每小時30元;小型車月租每月4000元;,0~24時,299338,2771898,179,0,
50119,新北市,新莊區,NPXZ,正好停重安站,新北市新莊區福德一街33號旁,2,平面式臨時路外停車場,800888924,小型車計時每小時80元;小型車月租每月8000元;,0~24時,296749.7,2772073,117,0,
220003,新北市,石門區,NPSM,宏達經營管理顧問有限公司石門洞路外停車場,新北市石門區中央路37-1號旁空地,2,平面式都市計畫停車場,29869257,小型車計次每小時60元;小型車月租每月1000元;機車計次每次20元;,0~24時,307377,2798783,95,65,
110018,新北市,汐止區,NPXI,新北市立青山國民中小學地下停車場,新北市汐止區莊敬街33號,2,立體式多目標附建停車場,2691-7877,小型車月租每月2200元;,0~24時,316268,2772703,38,0,
70029,新北市,樹林區,NPSL,樹林區山佳車站前地下停車場,新北市樹林區中山路3段102號地下室,2,立體式建築附設停車空間,89707364,機車計次每次20元;機車月租每月400元;,0~24時,289645.5,2762773,0,78,
30006,新北市,中和區,NPZH,自強游泳池停車場,新北市中和區中山路二段64巷9號,2,平面式建築附設停車空間,22475055,小型車計時每小時20元;小型車月租每月4000元;,0~24時,300797.9152,2766418.119,65,0,
50013,新北市,新莊區,NPXZ,新莊生命紀念館停車場,新北市新莊區壽山路162之1號,2,立體式建築附設停車空間,2906-0020,小型車計時每小時20元;小型車月租每月3000元;機車免費免費;,0~24時,291919,2769287,80,83,
40012,新北市,永和區,NPYH,沃瑪企業有限公司保生停車場,新北市永和區保安路292號旁空地,1,平面式臨時路外停車場,8660-4371,小型車計時每小時20元;小型車月租每月3300元;,0~24時,300883,2767045.5,38,0,
30080,新北市,中和區,NPZH,沃瑪企業有限公司和城停車場,新北市中和區中正路501號旁空地,1,平面式臨時路外停車場,3234-0007,小型車計時每小時20元;小型車月租每月3000元;,0~24時,299465.5,2765221,30,0,
30015,新北市,中和區,NPZH,沃瑪企業有限公司民安停車場,新北市中和區員山路455巷10號前空地,1,平面式臨時路外停車場,8227-5674,小型車計時每小時20元;小型車月租每月3000元;,0~24時,298364.5,2766367.5,39,0,
170001,新北市,林口區,NPLK,林口區停一平面停車場,新北市林口區竹林路325號旁,1,平面式都市計畫停車場,26014440,小型車計次每次60元;小型車計次每小時90元;小型車計時每小時10元;小型車月租每月1800元;,0~24時,289140,2775176,56,0,
20043,新北市,三重區,NPSC,集美停車場,三重區集美街51號對面空地,2,平面式臨時路外停車場,2977-6186,小型車計時每小時40元;小型車月租每月5000元;,0~24時,299384,2772067.5,173,0,
30004,新北市,中和區,NPZH,中和國小停車場,新北市中和區景平路632-8號B1-B2,1,立體式多目標附建停車場,2542-0001,小型車計時每小時20元;小型車月租每月4000元;身障車月租每月2000元;機車計次每次10元;機車月租每月300元;,0~24時,300581,2765805.5,622,99,
10152,新北市,板橋區,NPBQ,板橋四維公園地下停車場,新北市板橋區陽明街166號1F及B1~B3,1,立體式多目標附建停車場,2246-1708,小型車計時每小時30元;小型車月租每月4000元;身障車月租每月2000元;機車計次每次10元;機車月租每月300元;,0~24時,296826.9,2768693,315,23,
230008,新北市,八里區,NPBL,八里區渡船頭平面停車場,新北市八里區龍米路二段156號對面,1,平面式臨時路外停車場,26104720,小型車計次每次90元;小型車月租每月1300元;,0~24時,293909,2783242.5,123,10,
10125,新北市,板橋區,NPBQ,國光1站、國光2站,新北市板橋區國光路與國光路49巷交叉處旁空地,1,平面式臨時路外停車場,966566866,小型車計時每小時30元;小型車月租每月4000元;,0~24時,296350.7,2767838,47,10,
160014,新北市,泰山區,NPTA,台貿站停車場,新北市泰山區半山雅路2號前,1,平面式建築附設停車空間,966566866,小型車計時每小時20元;小型車月租每月2500元;,0~24時,293495.3,2773268,116,20,
260003,新北市,貢寮區,NPGL,四季灣停車場,新北市貢寮區和美街48號,2,平面式建築附設停車空間,2490-1000#3400,小型車計次每次60元;機車計時每次30元;,0~24時,342483,2776807,318,23,
60030,新北市,新店區,NPXD,寶安停車場,新店區寶安街26號,2,平面式臨時路外停車場,8665-7190,小型車計時每小時40元;機車計次每次20元;,7~22時,304732.5,2764147.5,6,12,
50070,新北市,新莊區,NPXZ,台65高架橋下停車場,新北市新莊區中環路2段48之8號斜對面,1,平面式臨時路外停車場,966566866,小型車計時每小時20元;小型車月租每月4000元;,0~24時,294611,2770518,116,35,
80029,新北市,鶯歌區,NPYG,樂陶陶收費停車場,新北市鶯歌區二橋街1~7號、高職南街2~18號B1、B2,2,立體式建築附設停車空間,29623780,小型車月租每月2500元;,0~24時,284040.2,2759095,32,0,
90019,新北市,三峽區,NPSA,新北市政府三峽火化場立體停車場,新北市三峽區介壽路3段260號1、2樓及B1,1,立體式建築附設停車空間,86768826,小型車計時每小時30元;小型車月租每月4000元;,0~24時,291198,2760143,98,0,
50118,新北市,土城區,NPTC,禾典裕明站,土城區學成路182號旁空地,2,平面式臨時路外停車場,(02)8978-6901,小型車計時每小時50元;小型車月租每月5000元;,0~24時,2772118,295051.3,37,0,
20108,新北市,三重區,NPSC,頂崁停車場,新北市三重區頂崁街210巷28弄,2,平面式臨時路外停車場,29710770,小型車計時每小時20元;小型車月租每月3000元;,0~24時,298001.4,2773270,6,0,
50083,新北市,新莊區,NPXZ,宏達經營管理顧問有限公司中平停車場,新北市新莊區中平路110巷36號B2,2,立體式建築附設停車空間,2986-9257,小型車計時每小時40元;小型車月租每月5000元;,0~24時,295006.2,2770946,75,0,
10123,新北市,板橋區,NPBQ,市立殯儀館停車場,新北市板橋區中正路560號,1,平面式多目標附建停車場,02-24551299,小型車計時每小時30元;小型車月租每月3000元;機車免費免費;,0~24時,296079.3,2769008,70,223,
30009,新北市,中和區,NPZH,錦和運動公園停車場,新北市中和區錦和路350號,2,平面式臨時路外停車場,02-7717-7177,小型車計時每小時20元;小型車月租每月4000元;,0~24時,299514.5,2765046.5,118,0,
130003,新北市,土城區,NPTC,員林停車場,土城區員林街左側(中正路67巷26號對面),1,平面式臨時路外停車場,22461708,小型車計時每小時20元;小型車月租每月3000元;小型車月租每月2400元;身障車月租每月1500元;,0~24時,294836.5,2763249.5,47,0,
50066,新北市,新莊區,NPXZ,利濟街水門停車場,新莊區堤外利濟街水門旁,2,平面式臨時路外停車場,24551299,小型車計時每小時20元;小型車月租每月2500元;小型車計次每次100元;,0~24時,295708.14,2769572.408,54,36,
70034,新北市,樹林區,NPSL,柑園河濱停車場,新北市樹林區堤外高灘地,2,平面式臨時路外停車場,24551299,;,0~24時,289415.1,2762318,80,50,
50097,新北市,新莊區,NPXZ,新月橋停車場,新北市新莊區堤外停車場,2,平面式臨時路外停車場,24551299,小型車計時每小時20元;小型車月租每月2500元;,0~24時,295415.4,2769347,88,63,
60089,新北市,新店區,NPXD,新店中正平面停車場,新北市新店區中正路30號旁空地停車場,2,平面式臨時路外停車場,02-8914-7378,小型車計時每小時40元;小型車月租每月6000元;,0~24時,305004.8,2762559,118,0,
90034,新北市,汐止區,NPXI,台灣聯通汐止福德停車場,新北市汐止區福德路38號B2,2,立體式建築附設停車空間,02-25235000,小型車計時每小時60元;身障車月租每月6000元;,0~24時,288195.1,2759701,20,0,
20027,新北市,三重區,NPSC,三重區重陽國民小學善德樓地下1樓停車場,新北市三重區中正北路113號B1,2,立體式多目標附建停車場,29826272分機133,小型車月租每月200元;小型車月租每月1400;小型車月租每月1500元;,0~24時,298882,2773211.5,42,0,
20119,新北市,三重區,NPSC,光明站停車場,三重區重安街70號B1,1,立體式多目標附建停車場,966566866,小型車計時每小時20元;小型車月租每月4000元;,0~24時,299605,2772229,50,0,
20102,新北市,三重區,NPSC,文中小平面停車場,新北市三重區新北大道1段159號對面停車場,1,平面式臨時路外停車場,02-29294178,小型車計時每小時20元;小型車月租每月4000元;身障車月租每月2000元;小型車計次每次150元;機車計次每次10元;,0~24時,298582.8,2772639,919,256,
110040,新北市,汐止區,NPXI,仲偉企業行下寮停車場,新北市汐止區新台五路一段90、92、94、96、98、100、102、104、106、110、112、114、116號及建築物之地下三層,2,立體式建築附設停車空間,26969000-205,小型車計時每小時30元;小型車月租每月2000元;,0~24時,315880,2772809.5,78,0,
170027,新北市,林口區,NPLK,東勢公有市場地下停車場,新北市林口區麗園一街35號B1、B2,2,立體式建築附設停車空間,2246-1708,小型車計時每小時20元;小型車月租每月4000元;,0~24時,288097.7,2773460,64,0,
150025,新北市,五股區,NPWG,愛馬屋五股園區站停車場,新北市五股區五權路9號,2,平面式建築附設停車空間,02-23457755,大型車計時每小時100元;小型車計時每小時20元;小型車月租每月3000元;,0~24時,295326.9,2773127,52,0,
70012,新北市,汐止區,NPXI,聯永物業股份有限公司汐止一站,新北市汐止區大同路2段125、127、129、131、133、135、137、139、141、143、145、147、149、151、153、155、157、159、161、163、165、167號建築物之地下一層,1,立體式建築附設停車空間,975024268,小型車計時每小時60元;小型車月租每月7000元;,0~24時,292754,2764752.5,83,0,
50023,新北市,新莊區,NPXZ,Times新莊福壽榮華,新北市新莊區福壽街與榮華路口空地,2,平面式臨時路外停車場,800888924,小型車計時每小時80元;小型車月租每月8000元;,0~24時,296157,2771938.5,32,0,
110062,新北市,汐止區,NPXI,新北市汐止區大同停場,新北市汐止區大同路2 段240號旁,2,平面式建築附設停車空間,953152338,小型車計時每小時30元;小型車月租每月2500元;機車計次每次20元;機車月租月租300元;,0~24時,316021,2773236,55,59,
110063,新北市,永和區,NPYH,新北市永和國民運動中心停車場,新北市永和區永利路250號,2,立體式建築附設停車空間,02-22318989,小型車計時每小時20元;小型車月租每月4000元;,0~24時,316325.1,2773201,288,90,
30105,新北市,中和區,NPZH,中和和城停車場,,2,平面式臨時路外停車場,,;,0~24時,299398.7,2765214,0,0,
40003,新北市,永和區,NPYH,永和國小地下停車場,新北市永和區中正路299號B1、B2,1,立體式多目標附建停車場,29294178,小型車計時每小時30元;小型車月租每月4000元;機車計次每次10元;機車月租每月300元;,0~24時,302132.5,2766217.5,283,20,
170029,新北市,林口區,NPLK,麗園停車場,新北市林口區文化一路一段100巷與麗園路口,2,平面式臨時路外停車場,0932-155-049,大型車月租每月4000元;小型車月租每月1500元;,0~24時,287765.3,2773553,52,0,
290002,新北市,烏來區,NPWL,烏來停車場,新北市烏來區烏來街47號,1,立體式都市計畫停車場,(02)2661-7841,小型車計次每次60元;機車計次每次10元;大型車月租每月3000元;小型車月租每月1500元;機車月租每月120元;大型車計次每次120元;,0~24時,305699,2750680,423,32,
10021,新北市,新莊區,NPXZ,昌德停車場,新北市新莊區昌德街90號旁,1,平面式臨時路外停車場,(02)2921-3999,小型車計時每小時30元;小型車月租每月4000元;,0~24時,295640.5,2768539,34,0,
10024,新北市,板橋區,NPBQ,華東停車場,新北市板橋區南雅南路2段144巷88號對面空地,1,平面式臨時路外停車場,89667646,小型車月租每月2400元;小型車計時每小時20元;,0~24時,295418,2765387,238,29,
160005,新北市,泰山區,NPTA,泰山公有零售市場所屬停車場,新北市泰山區全興路212號B1、B2,1,立體式多目標附建停車場,2909-2166,小型車計時每小時20元;小型車月租每月2500元;,0~24時,293817.5,2772077,128,0,
160001,新北市,泰山區,NPTA,山腳站,新北市泰山區憲訓路與美寧街交會處,1,平面式都市計畫停車場,966566866,小型車計時每小時20元;小型車月租每月1800元;,0~24時,293280,2773079,61,5,
50048,新北市,新莊區,NPXZ,Times新莊中榮街,新莊區中榮街75號,2,平面式臨時路外停車場,800888924,小型車計時每小時80元;小型車月租每月8000元;,0~24時,295030.5,2771670,30,0,
30096,新北市,中和區,NPZH,安平停車場,新北市中和區宜安路92巷19號對面,2,平面式臨時路外停車場,02-29493257,小型車月租每月3500元;,0~24時,301634.7,2765624,35,0,
90001,新北市,三峽區,NPSA,三峽國際一站停車場,新北市三峽區國際一街19號旁,2,平面式臨時路外停車場,966237006,小型車計時每小時30元;小型車月租每月2000元;,0~24時,290525.5,2755367,24,0,
40013,新北市,永和區,NPYH,中信停車場,永和區中興街88號對面空地,1,平面式臨時路外停車場,8921-1965,小型車計時每小時30元;小型車月租每月6000元;,0~24時,302383.5,2767280,68,0,
100006,新北市,淡水區,NPTS,淡水國中停車場,淡水區真理街10號,2,平面式多目標附建停車場,2621-2758,小型車計時每小時40元;,0~24時,294004,2785201.5,18,0,
10128,新北市,板橋區,NPBQ,廖偉任停車場,新北市板橋區民族路225巷,2,平面式臨時路外停車場,963977088,小型車月租每月2500元;,0~24時,297430.8,2766739,46,0,
40013,新北市,永和區,NPYH,中信停車場,永和區中興街88號對面,1,平面式臨時路外停車場,02-2959-9991,小型車計時每小時30元;小型車月租每月6000元;小型車月租每月4800元;身障車月租每月3000元;小型車月租每月3000元;,0~24時,302383.5,2767280,68,0,
120012,新北市,瑞芳區,NPRF,瑞芳消防分隊前平面停車場,新北市瑞芳區中正路30號對面,1,平面式臨時路外停車場,02-82016628,小型車計時每小時20元;小型車月租每月4000元;機車計次每次10元;機車月租每月100元;,0~24時,331427.3,2777892,83,15,
170039,新北市,新店區,NPXD,美河市商場暨里民停車場,新北市新店區中央路157號B1、2F、3F停車場,2,立體式建築附設停車空間,02-77338888,小型車計時每小時30元;小型車月租每月4000元;,0~24時,286767,2773698,287,0,
40052,新北市,永和區,NPYH,新長越樂華夜市停車場,新北市永和區永和路1段97號,2,平面式臨時路外停車場,27785756,小型車計時每小時120元;,0~24時,301836.1,2766742,15,0,
50015,新北市,新莊區,NPXZ,衛生福利部臺北醫院停車場,新北市新莊區思源路127號1F,2,平面式建築附設停車空間,2276-5566#3155或3156,機車計次每次20元;小型車計時每小時30元;小型車月租每月3000元;,0~24時,296354,2770649.5,87,70,
